{
  "version": 0.6,
  "generator": "Overpass API 0.7.57 93a4d346",
  "osm3s": {
    "timestamp_osm_base": "2021-11-04T14:54:26Z",
    "copyright": "The data included in this document is from www.openstreetmap.org. The data is made available under ODbL."
  },
  "elements": [

{
  "type": "node",
  "id": 674154533,
  "lat": 53.8367604,
  "lon": -1.6429526,
  "tags": {
    "addr:city": "Leeds",
    "addr:housenumber": "5",
    "addr:postcode": "LS18 5JB",
    "addr:street": "The Green",
    "addr:suburb": "Horsforth",
    "name": "Horsforth Museum",
    "phone": "+44 113 281 9877",
    "tourism": "museum"
  }
},
{
  "type": "node",
  "id": 3718205540,
  "lat": 53.8662668,
  "lon": -1.6841065,
  "tags": {
    "addr:city": "Yeadon",
    "addr:housenumber": "35",
    "addr:postcode": "LS19 7SP",
    "addr:street": "High Street",
    "name": "Sew Quick",
    "phone": "+44 113 250 4182",
    "shop": "tailor"
  }
},
{
  "type": "node",
  "id": 8928445917,
  "lat": 53.8758027,
  "lon": -1.7083888,
  "tags": {
    "addr:city": "Leeds",
    "addr:housenumber": "3",
    "addr:street": "Oxford Road",
    "addr:suburb": "Guisley",
    "name": "Serious Stitchin'",
    "shop": "tailor"
  }
},
{
  "type": "way",
  "id": 4326335,
  "nodes": [
    26308135,
    26308136
  ],
  "tags": {
    "bridge": "yes",
    "highway": "trunk",
    "lanes": "2",
    "layer": "1",
    "maxspeed": "60 mph",
    "maxweight:signed": "no",
    "name": "Broadway",
    "ref": "A6120",
    "sidewalk": "left",
    "surface": "asphalt"
  }
},
{
  "type": "way",
  "id": 22879963,
  "nodes": [
    11214581,
    873778810
  ],
  "tags": {
    "bridge": "yes",
    "cycleway:both": "no",
    "fixme": "Is this a bridge?",
    "highway": "primary",
    "layer": "1",
    "maxspeed": "40 mph",
    "name": "Carr Road",
    "ref": "A657",
    "source:name": "OS_OpenData_StreetView",
    "source:ref": "OS_OpenData_StreetView",
    "surface": "asphalt"
  }
},
{
  "type": "way",
  "id": 24742551,
  "nodes": [
    268898073,
    268898072
  ],
  "tags": {
    "bridge": "yes",
    "cycleway:left": "no",
    "cycleway:right": "track",
    "highway": "primary",
    "lanes:backward": "1",
    "lanes:forward": "2",
    "layer": "1",
    "lit": "yes",
    "maxspeed": "30 mph",
    "ref": "A65",
    "source": "survey",
    "source_ref": "GPS",
    "surface": "asphalt",
    "turn:lanes:forward": "none|right"
  }
},
{
  "type": "way",
  "id": 27293410,
  "nodes": [
    299615181,
    299615180
  ],
  "tags": {
    "bridge": "yes",
    "highway": "trunk",
    "lanes": "2",
    "lanes:backward": "1",
    "lanes:forward": "1",
    "layer": "1",
    "maxspeed": "60 mph",
    "maxweight:signed": "no",
    "name": "Horsforth New Road",
    "ref": "A6120",
    "sidewalk": "both",
    "surface": "asphalt"
  }
},
{
  "type": "way",
  "id": 27293412,
  "nodes": [
    299615179,
    26308138
  ],
  "tags": {
    "bridge": "yes",
    "bridge:name": "Horsforth Road Bridge",
    "bridge:ref": "216A",
    "highway": "trunk",
    "lanes": "2",
    "lanes:backward": "1",
    "lanes:forward": "1",
    "layer": "1",
    "maxspeed": "60 mph",
    "maxweight:signed": "no",
    "name": "Horsforth New Road",
    "ref": "A6120",
    "surface": "asphalt"
  }
},
{
  "type": "way",
  "id": 27293754,
  "nodes": [
    299617745,
    299617746
  ],
  "tags": {
    "bridge": "yes",
    "highway": "trunk",
    "layer": "1",
    "maxspeed": "40 mph",
    "ref": "A658",
    "source": "survey"
  }
},
{
  "type": "way",
  "id": 27293756,
  "nodes": [
    11214720,
    299617744
  ],
  "tags": {
    "bridge": "yes",
    "bridge:name": "Harrogate Road Bridge",
    "bridge:ref": "214A",
    "highway": "trunk",
    "layer": "1",
    "maxspeed": "40 mph",
    "ref": "A658",
    "source": "survey"
  }
},
{
  "type": "way",
  "id": 27293760,
  "nodes": [
    299617747,
    299617748
  ],
  "tags": {
    "bridge": "yes",
    "highway": "trunk",
    "lanes": "3",
    "lanes:backward": "1",
    "lanes:forward": "2",
    "layer": "1",
    "maxspeed": "40 mph",
    "name": "Apperley Lane",
    "ref": "A658",
    "source": "survey",
    "turn:lanes:forward": "through|right"
  }
},
{
  "type": "way",
  "id": 43372295,
  "nodes": [
    32038872,
    32038871
  ],
  "tags": {
    "bridge": "yes",
    "highway": "primary",
    "layer": "1",
    "maxspeed": "40 mph",
    "name": "Hollins Hill",
    "ref": "A6038",
    "source": "survey",
    "source:name": "survey",
    "source_ref": "GPS"
  }
},
{
  "type": "way",
  "id": 76203398,
  "nodes": [
    899077328,
    899077371
  ],
  "tags": {
    "bridge": "yes",
    "bridge:name": "Coney Lodge Bridge",
    "highway": "trunk",
    "lanes": "2",
    "layer": "1",
    "lit": "yes",
    "maxspeed": "50 mph",
    "name": "Harrogate Road",
    "ref": "A658",
    "sidewalk": "both",
    "source": "GPS",
    "source:bridge:name": "OS sheet 187, publ 1851",
    "source:maxspeed": "sign",
    "surface": "paved"
  }
},
{
  "type": "way",
  "id": 76228658,
  "nodes": [
    11621564,
    899279653
  ],
  "tags": {
    "bridge": "yes",
    "bridge:name": "Carlton Bridge",
    "highway": "trunk",
    "lanes": "2",
    "layer": "1",
    "lit": "yes",
    "maxspeed": "50 mph",
    "name": "Harrogate Road",
    "ref": "A658",
    "sidewalk": "left",
    "source": "GPS",
    "source:maxspeed": "sign"
  }
},
{
  "type": "way",
  "id": 149148310,
  "nodes": [
    1621715485,
    1621715388,
    8228372129,
    8257999715,
    8257999716,
    8257999714,
    8228372125,
    8228372124,
    1621715383,
    1621715365,
    1621715377,
    1621715301,
    1621715299,
    1621715292,
    1621715257,
    1621715228,
    1621715367,
    1621715361,
    3799724112,
    1621715357,
    1621715344,
    1621715328,
    1621715526,
    1621715485
  ],
  "tags": {
    "natural": "water",
    "source": "Bing",
    "water": "lake"
  }
},
{
  "type": "way",
  "id": 234250908,
  "nodes": [
    2425234684,
    2425234637,
    2425234630,
    2425234631,
    2425234670,
    2425234672,
    8855367859,
    2425234641,
    2425234684
  ],
  "tags": {
    "name": "Esholt Caravan Park",
    "tourism": "camp_site",
    "website": "http://esholtcaravanpark.co.uk/"
  }
},
{
  "type": "way",
  "id": 261520183,
  "nodes": [
    3841580164,
    3841580165,
    3841580171,
    3841580170,
    2671250421,
    3841580169,
    2671250503,
    2671250511,
    2671250405,
    2671250449,
    2671250407,
    2671250444,
    2671250376,
    2671250491,
    3841580163,
    3841580164
  ],
  "tags": {
    "addr:city": "Leeds",
    "addr:housename": "Yeadon Town Hall",
    "addr:postcode": "LS19 7PP",
    "addr:street": "High Street",
    "amenity": "townhall",
    "building": "yes",
    "fhrs:id": "467216",
    "name": "Yeadon Town Hall",
    "source": "Bing"
  }
},
{
  "type": "way",
  "id": 313279987,
  "nodes": [
    3191897893,
    3191896328,
    3191896358,
    3191896313,
    3191897880,
    6027564183,
    3191897893
  ],
  "tags": {
    "addr:city": "Leeds",
    "addr:country": "GB",
    "addr:housename": "West Side Retail Park",
    "addr:postcode": "LS20 9NE",
    "addr:street": "Leeds Road",
    "addr:suburb": "Guisley",
    "addr:unit": "3a",
    "brand": "Asda",
    "brand:wikidata": "Q297410",
    "brand:wikipedia": "en:Asda",
    "building": "retail",
    "contact:website": "https://storelocator.asda.com/yorkshire-&-humber/leeds/guiseley-west-side-retail-park",
    "fhrs:id": "580058",
    "name": "Asda Living",
    "operator": "Asda Stores Ltd",
    "shop": "department_store"
  }
},
{
  "type": "way",
  "id": 367984702,
  "nodes": [
    3718505419,
    3718505420,
    3718505421,
    3718505422,
    3718505423,
    3718505424,
    3718505625,
    3718505626,
    3718505627,
    3718505628,
    3718505629,
    3718505630,
    3718505631,
    3718505632,
    3718505633,
    3718505634,
    3718505419
  ],
  "tags": {
    "building": "apartments"
  }
},
{
  "type": "way",
  "id": 381425424,
  "nodes": [
    3846261018,
    3846261019,
    3846261020,
    3846261021,
    3846261018
  ],
  "tags": {
    "building": "apartments"
  }
},
{
  "type": "way",
  "id": 381972756,
  "nodes": [
    3851807685,
    3851807686,
    3851807687,
    3851807688,
    3851807685
  ],
  "tags": {
    "addr:housenumber": "1-12",
    "addr:street": "Fink Hill",
    "building": "apartments",
    "building:levels": "3",
    "roof:shape": "gabled"
  }
},
{
  "type": "way",
  "id": 381972758,
  "nodes": [
    3851807693,
    3851807694,
    3851807695,
    3851807696,
    3851807693
  ],
  "tags": {
    "addr:housenumber": "25-36",
    "building": "apartments"
  }
},
{
  "type": "way",
  "id": 386517589,
  "nodes": [
    3898601893,
    3898601894,
    3898601908,
    3898601895,
    3898601896,
    3898601897,
    3898601898,
    3898601899,
    3898601900,
    3898601901,
    3898601902,
    3898601903,
    3898601904,
    3898601905,
    3898601906,
    3898601893
  ],
  "tags": {
    "building": "apartments",
    "building:levels": "5"
  }
},
{
  "type": "way",
  "id": 388746019,
  "nodes": [
    3919161265,
    3919161266,
    3919161267,
    3919161268,
    3919161269,
    3919161270,
    3919161271,
    3919161272,
    3919161273,
    3919161274,
    3919161275,
    3919161276,
    3919161265
  ],
  "tags": {
    "building": "apartments"
  }
},
{
  "type": "way",
  "id": 389212203,
  "nodes": [
    3923670522,
    3923670523,
    3923670524,
    3923670525,
    3923670526,
    3923670527,
    3923670528,
    3923670529,
    3923670522
  ],
  "tags": {
    "building": "apartments"
  }
},
{
  "type": "way",
  "id": 389212204,
  "nodes": [
    3923670530,
    3923670531,
    3923670532,
    3923670533,
    3923670534,
    3923670535,
    3923670536,
    3923670537,
    3923670530
  ],
  "tags": {
    "building": "apartments"
  }
},
{
  "type": "way",
  "id": 389753997,
  "nodes": [
    3929191900,
    3929191901,
    3929191902,
    3929191903,
    3929191904,
    3929191905,
    3929191900
  ],
  "tags": {
    "building": "apartments"
  }
},
{
  "type": "way",
  "id": 389753998,
  "nodes": [
    3929191906,
    3929191907,
    3929191908,
    3929191909,
    3929191906
  ],
  "tags": {
    "building": "apartments"
  }
},
{
  "type": "way",
  "id": 395105016,
  "nodes": [
    3979917508,
    3979917509,
    3979917510,
    3979917511,
    3979917512,
    3979917513,
    3979917514,
    3979917515,
    3979917516,
    3979917517,
    8300734229,
    8300734230,
    8300734231,
    8300734228,
    3979917508
  ],
  "tags": {
    "building": "apartments"
  }
},
{
  "type": "way",
  "id": 395105018,
  "nodes": [
    3979917518,
    3979917519,
    3979917520,
    3979917521,
    3979917522,
    3979917523,
    3979917524,
    3979917525,
    3979917526,
    3979917527,
    3979917518
  ],
  "tags": {
    "building": "apartments"
  }
},
{
  "type": "way",
  "id": 395105019,
  "nodes": [
    3979917528,
    3979917529,
    3979917530,
    3979917531,
    3979917532,
    3979917533,
    3979917534,
    3979917535,
    3979917528
  ],
  "tags": {
    "building": "apartments"
  }
},
{
  "type": "way",
  "id": 397330342,
  "nodes": [
    4001266022,
    4001266023,
    4001266024,
    4001266025,
    4001266026,
    4001266027,
    4001266028,
    4001266029,
    4001266030,
    4001266031,
    4001266032,
    4001266033,
    4001266034,
    4001266035,
    4001266036,
    4001266037,
    4001266022
  ],
  "tags": {
    "building": "apartments"
  }
},
{
  "type": "way",
  "id": 397330344,
  "nodes": [
    4001266038,
    4001266039,
    4001266040,
    4001266041,
    4001266042,
    4001266043,
    4001266044,
    4001266045,
    4001266046,
    4001266047,
    4001266048,
    4001266049,
    4001266038
  ],
  "tags": {
    "building": "apartments"
  }
},
{
  "type": "way",
  "id": 397330345,
  "nodes": [
    4001266050,
    4001266051,
    4001266052,
    4001266053,
    4001266050
  ],
  "tags": {
    "building": "apartments"
  }
},
{
  "type": "way",
  "id": 405695814,
  "nodes": [
    4078543707,
    4078543708,
    4078543709,
    4078543710,
    4078543707
  ],
  "tags": {
    "addr:city": "Leeds",
    "addr:housenumber": "1-6 The Parade",
    "addr:postcode": "LS19 7NW",
    "addr:street": "Westfield Drive",
    "building": "apartments",
    "building:levels": "2",
    "name": "The Parade"
  }
},
{
  "type": "way",
  "id": 419819581,
  "nodes": [
    4198178416,
    4198178417,
    4198178418,
    4198178419,
    4198178416
  ],
  "tags": {
    "addr:city": "Leeds",
    "addr:housenumber": "29",
    "addr:postcode": "LS20 9AS",
    "addr:street": "Oxford Road",
    "addr:suburb": "Guiseley",
    "building": "apartments",
    "building:levels": "3",
    "roof:levels": "0",
    "roof:shape": "gabled"
  }
},
{
  "type": "way",
  "id": 419819609,
  "nodes": [
    4198178681,
    4198178682,
    4198178683,
    4198178684,
    4198178685,
    4198178686,
    4198178687,
    4198178688,
    4198178689,
    4198178690,
    4198178691,
    4198178692,
    4198178693,
    4198178694,
    4198178681
  ],
  "tags": {
    "building": "apartments",
    "building:levels": "2",
    "roof:levels": "1",
    "roof:shape": "gabled"
  }
},
{
  "type": "way",
  "id": 420859302,
  "nodes": [
    4207576580,
    4207576581,
    4207576582,
    4207576583,
    4207576584,
    4207576585,
    4207576586,
    4207576587,
    4207576588,
    4207576589,
    4207576590,
    4207576591,
    8726371593,
    4207576592,
    4207576580
  ],
  "tags": {
    "building": "apartments",
    "building:levels": "3",
    "roof:levels": "0",
    "roof:shape": "many"
  }
},
{
  "type": "way",
  "id": 421150893,
  "nodes": [
    4209682522,
    4209682523,
    4209682524,
    4209682525,
    4209682522
  ],
  "tags": {
    "building": "apartments"
  }
},
{
  "type": "way",
  "id": 421150894,
  "nodes": [
    4209682526,
    4209682527,
    4209682528,
    4209682529,
    4209682530,
    4209682531,
    4209682532,
    4209682533,
    4209682534,
    4209682535,
    4209682536,
    4209682537,
    4209682538,
    4209682539,
    4209682540,
    4209682541,
    4209682542,
    4209682543,
    4209682544,
    4209682545,
    4209682546,
    4209682547,
    4209682548,
    4209682549,
    4209682550,
    4209682551,
    4209682552,
    4209682526
  ],
  "tags": {
    "building": "apartments"
  }
},
{
  "type": "way",
  "id": 421150895,
  "nodes": [
    4209682553,
    4209682554,
    4209682555,
    4209682556,
    4209682553
  ],
  "tags": {
    "building": "apartments"
  }
},
{
  "type": "way",
  "id": 490737018,
  "nodes": [
    4829251026,
    4829251027,
    4829251028,
    4642116848,
    4642116847,
    4642116850,
    6742420509,
    4829251025,
    4829251026
  ],
  "tags": {
    "building": "apartments",
    "building:levels": "2",
    "note": "Former derilict buildings turned into flats",
    "roof:shape": "gabled"
  }
},
{
  "type": "way",
  "id": 533851567,
  "nodes": [
    5178625983,
    5178625986,
    5178625987,
    5178625988,
    5178625984,
    5178625985,
    5178625983
  ],
  "tags": {
    "building": "apartments"
  }
},
{
  "type": "way",
  "id": 533851581,
  "nodes": [
    5178626130,
    5178626126,
    5178626020,
    5178626122,
    5178626123,
    5178626121,
    5178626131,
    5178626127,
    5178626128,
    5178626019,
    5178626018,
    5178626125,
    5178626124,
    5178626129,
    5178626130
  ],
  "tags": {
    "addr:city": "Leeds",
    "addr:housenumber": "23",
    "addr:street": "Bletchley Avenue",
    "addr:suburb": "Horsforth",
    "building": "apartments"
  }
},
{
  "type": "way",
  "id": 552078249,
  "nodes": [
    5330765822,
    5330765823,
    5330765824,
    5330765825,
    5330765822
  ],
  "tags": {
    "addr:housenumber": "13-24",
    "addr:street": "Fink Hill",
    "building": "apartments",
    "building:levels": "3",
    "roof:shape": "gabled"
  }
},
{
  "type": "way",
  "id": 558915901,
  "nodes": [
    5391051551,
    5391030940,
    5391051552,
    6838376598,
    5391051553,
    5391051554,
    5391051555,
    5391051556,
    5391051557,
    5391051558,
    5391051559,
    5391051551
  ],
  "tags": {
    "building": "apartments",
    "name": "Jowett Court"
  }
},
{
  "type": "way",
  "id": 561947029,
  "nodes": [
    5417925337,
    5417925336,
    5417925335,
    5417922050,
    5417922049,
    5417922048,
    5417922047,
    5417922046,
    5417922045,
    5417922044,
    5417922043,
    5417922042,
    534433418,
    5417925334,
    6593904150,
    6990078539,
    6990078538,
    5417925337
  ],
  "tags": {
    "addr:city": "Leeds",
    "addr:postcode": "LS16 9HR",
    "addr:street": "Occupation Lane",
    "addr:suburb": "Bramhope",
    "fhrs:id": "1205282",
    "name": "Bramhope Scout Camping Ground",
    "tourism": "camp_site",
    "website": "http://www.bramhope.org.uk/"
  }
},
{
  "type": "way",
  "id": 598416624,
  "nodes": [
    5695536482,
    5695536483,
    5695536484,
    5695536485,
    5695536482
  ],
  "tags": {
    "building": "apartments"
  }
},
{
  "type": "way",
  "id": 598416625,
  "nodes": [
    5695536486,
    5695517760,
    5695536487,
    5695517762,
    5695517763,
    5695536486
  ],
  "tags": {
    "building": "apartments"
  }
},
{
  "type": "way",
  "id": 853548680,
  "nodes": [
    7961302161,
    7961302162,
    7961302163,
    7961302164,
    7961302165,
    7961302166,
    7961302167,
    7961302168,
    7961302169,
    7961302170,
    7961302171,
    7961302172,
    7961302173,
    7961302174,
    7961302175,
    7961302161
  ],
  "tags": {
    "natural": "water",
    "water": "lake"
  }
},
{
  "type": "way",
  "id": 878752110,
  "nodes": [
    8175123583,
    8175123584,
    8175123585,
    8175123586,
    8175123587,
    8175123588,
    8175123589,
    8175123590,
    8175123572,
    8175123573,
    8175123576,
    8175123577,
    8175123578,
    8175123579,
    8175123580,
    8175123581,
    8175123582,
    8175123574,
    8175123575,
    8175123583
  ],
  "tags": {
    "natural": "water",
    "water": "lake"
  }
},
{
  "type": "way",
  "id": 881665477,
  "nodes": [
    8199361520,
    8199361521,
    8199361522,
    8199361523,
    8199361524,
    8199361525,
    8199361526,
    8199361520
  ],
  "tags": {
    "natural": "water",
    "water": "lake"
  }
},
{
  "type": "way",
  "id": 881665497,
  "nodes": [
    8199361598,
    8199361599,
    8199361600,
    8199361601,
    8199361602,
    8199361603,
    8199361604,
    8199361605,
    8199361598
  ],
  "tags": {
    "natural": "water",
    "water": "lake"
  }
},
{
  "type": "way",
  "id": 884531184,
  "nodes": [
    8225785711,
    8225785712,
    8225785713,
    8225785714,
    8225785715,
    8225785716,
    8225841917,
    8225841918,
    8225841919,
    8225841920,
    8225841921,
    8225841922,
    8225841923,
    8225841924,
    8225785711
  ],
  "tags": {
    "natural": "water",
    "water": "lake"
  }
},
{
  "type": "way",
  "id": 893113652,
  "nodes": [
    8300734332,
    8300734333,
    8300734334,
    8300734335,
    8300734336,
    8300734337,
    8300734338,
    8300734339,
    8300734340,
    8300734341,
    8300734342,
    8300734343,
    8300734344,
    8300734345,
    8300734346,
    8300734347,
    8300734332
  ],
  "tags": {
    "natural": "water",
    "water": "lake"
  }
},
{
  "type": "way",
  "id": 893175325,
  "nodes": [
    8301338825,
    8301338826,
    8301338827,
    8301338828,
    8301338829,
    8301338830,
    8301338831,
    8301338832,
    8301338833,
    8301338834,
    8301338835,
    8301338836,
    8301338837,
    8301338838,
    8301338839,
    8301338840,
    8301338825
  ],
  "tags": {
    "natural": "water",
    "water": "lake"
  }
},
{
  "type": "way",
  "id": 893935122,
  "nodes": [
    8308601667,
    8308601668,
    8308601669,
    8308601670,
    8308601671,
    8308601672,
    8308601673,
    8308601674,
    8308601675,
    8308601676,
    8308601677,
    8308601667
  ],
  "tags": {
    "natural": "water",
    "water": "lake"
  }
},
{
  "type": "way",
  "id": 895310262,
  "nodes": [
    8322206125,
    8322206126,
    8322206127,
    8322206128,
    8322206129,
    8322206130,
    8322206125
  ],
  "tags": {
    "natural": "water",
    "water": "lake"
  }
},
{
  "type": "way",
  "id": 905983198,
  "nodes": [
    8413297457,
    8413297458,
    8413297459,
    8413297460,
    8413297461,
    8413297462,
    8413297463,
    8413297464,
    8413297465,
    8413297457
  ],
  "tags": {
    "natural": "water",
    "water": "lake"
  }
},
{
  "type": "way",
  "id": 913963757,
  "nodes": [
    8490032520,
    8490032521,
    8490032522,
    8490032523,
    8490032524,
    8490032525,
    8490032526,
    8490032527,
    8490032528,
    8490032529,
    8490032520
  ],
  "tags": {
    "natural": "water",
    "water": "lake"
  }
},
{
  "type": "way",
  "id": 957905312,
  "nodes": [
    8863482039,
    8863482040,
    8863482041,
    8863482042,
    8863482043,
    8863482044,
    8863482045,
    8863482046,
    8863482039
  ],
  "tags": {
    "building": "apartments",
    "building:levels": "2",
    "roof:levels": "1"
  }
},
{
  "type": "relation",
  "id": 3695758,
  "members": [
    {
      "type": "way",
      "ref": 3753696,
      "role": "outer"
    },
    {
      "type": "way",
      "ref": 278053730,
      "role": "inner"
    }
  ],
  "tags": {
    "boat": "private",
    "name": "Yeadon Tarn",
    "natural": "water",
    "swimming": "no",
    "type": "multipolygon",
    "water": "lake",
    "wikipedia": "en:Yeadon,_West_Yorkshire#Yeadon_Tarn"
  }
},
{
  "type": "relation",
  "id": 11519546,
  "members": [
    {
      "type": "way",
      "ref": 59934357,
      "role": "outer"
    },
    {
      "type": "way",
      "ref": 838561691,
      "role": "outer"
    },
    {
      "type": "way",
      "ref": 838561693,
      "role": "outer"
    },
    {
      "type": "way",
      "ref": 838561692,
      "role": "outer"
    },
    {
      "type": "way",
      "ref": 838561689,
      "role": "outer"
    }
  ],
  "tags": {
    "addr:city": "Leeds",
    "addr:postcode": "LS19 7TU",
    "aerodrome": "international",
    "aerodrome:type": "public",
    "aeroway": "aerodrome",
    "iata": "LBA",
    "icao": "EGNM",
    "name": "Leeds Bradford Airport",
    "operator": "Leeds Bradford Airport Limited",
    "operator:type": "private",
    "ref": "LBA",
    "type": "multipolygon",
    "website": "https://www.leedsbradfordairport.co.uk/",
    "wikidata": "Q8699",
    "wikipedia": "en:Leeds Bradford Airport"
  }
},
{
  "type": "node",
  "id": 5391030940,
  "lat": 53.8254820,
  "lon": -1.7383862
},
{
  "type": "node",
  "id": 5391051551,
  "lat": 53.8254883,
  "lon": -1.7386931
},
{
  "type": "node",
  "id": 5391051552,
  "lat": 53.8256546,
  "lon": -1.7383524
},
{
  "type": "node",
  "id": 5391051553,
  "lat": 53.8256530,
  "lon": -1.7379313
},
{
  "type": "node",
  "id": 5391051554,
  "lat": 53.8257559,
  "lon": -1.7379126
},
{
  "type": "node",
  "id": 5391051555,
  "lat": 53.8257559,
  "lon": -1.7378321
},
{
  "type": "node",
  "id": 5391051556,
  "lat": 53.8259353,
  "lon": -1.7378356
},
{
  "type": "node",
  "id": 5391051557,
  "lat": 53.8259215,
  "lon": -1.7391890
},
{
  "type": "node",
  "id": 5391051558,
  "lat": 53.8256368,
  "lon": -1.7391655
},
{
  "type": "node",
  "id": 5391051559,
  "lat": 53.8256257,
  "lon": -1.7387066
},
{
  "type": "node",
  "id": 6838376598,
  "lat": 53.8256545,
  "lon": -1.7383177
},
{
  "type": "node",
  "id": 5695517760,
  "lat": 53.8308958,
  "lon": -1.7369023
},
{
  "type": "node",
  "id": 5695517762,
  "lat": 53.8308370,
  "lon": -1.7370320
},
{
  "type": "node",
  "id": 5695517763,
  "lat": 53.8309573,
  "lon": -1.7370994
},
{
  "type": "node",
  "id": 5695536482,
  "lat": 53.8309642,
  "lon": -1.7374478
},
{
  "type": "node",
  "id": 5695536483,
  "lat": 53.8308517,
  "lon": -1.7373888
},
{
  "type": "node",
  "id": 5695536484,
  "lat": 53.8308829,
  "lon": -1.7372178
},
{
  "type": "node",
  "id": 5695536485,
  "lat": 53.8309954,
  "lon": -1.7372769
},
{
  "type": "node",
  "id": 5695536486,
  "lat": 53.8309859,
  "lon": -1.7369528
},
{
  "type": "node",
  "id": 5695536487,
  "lat": 53.8308656,
  "lon": -1.7368854
},
{
  "type": "node",
  "id": 32038871,
  "lat": 53.8604550,
  "lon": -1.7338036
},
{
  "type": "node",
  "id": 2425234630,
  "lat": 53.8568364,
  "lon": -1.7341878
},
{
  "type": "node",
  "id": 2425234631,
  "lat": 53.8572449,
  "lon": -1.7327759
},
{
  "type": "node",
  "id": 2425234637,
  "lat": 53.8566057,
  "lon": -1.7342457
},
{
  "type": "node",
  "id": 2425234641,
  "lat": 53.8558732,
  "lon": -1.7343286
},
{
  "type": "node",
  "id": 2425234670,
  "lat": 53.8566529,
  "lon": -1.7330934
},
{
  "type": "node",
  "id": 2425234672,
  "lat": 53.8564947,
  "lon": -1.7330934
},
{
  "type": "node",
  "id": 2425234684,
  "lat": 53.8563365,
  "lon": -1.7349817
},
{
  "type": "node",
  "id": 8855367859,
  "lat": 53.8564844,
  "lon": -1.7331312
},
{
  "type": "node",
  "id": 11214581,
  "lat": 53.8292730,
  "lon": -1.7064255
},
{
  "type": "node",
  "id": 873778810,
  "lat": 53.8292128,
  "lon": -1.7062002
},
{
  "type": "node",
  "id": 11214720,
  "lat": 53.8349897,
  "lon": -1.7069078
},
{
  "type": "node",
  "id": 299617744,
  "lat": 53.8352741,
  "lon": -1.7066214
},
{
  "type": "node",
  "id": 299617745,
  "lat": 53.8369446,
  "lon": -1.7053010
},
{
  "type": "node",
  "id": 299617746,
  "lat": 53.8374012,
  "lon": -1.7050055
},
{
  "type": "node",
  "id": 299617747,
  "lat": 53.8412491,
  "lon": -1.7034714
},
{
  "type": "node",
  "id": 299617748,
  "lat": 53.8417550,
  "lon": -1.7036249
},
{
  "type": "node",
  "id": 8199361598,
  "lat": 53.8453804,
  "lon": -1.6909894
},
{
  "type": "node",
  "id": 8199361599,
  "lat": 53.8452427,
  "lon": -1.6908311
},
{
  "type": "node",
  "id": 8199361602,
  "lat": 53.8451050,
  "lon": -1.6908794
},
{
  "type": "node",
  "id": 8199361603,
  "lat": 53.8451509,
  "lon": -1.6910430
},
{
  "type": "node",
  "id": 8199361604,
  "lat": 53.8452475,
  "lon": -1.6910215
},
{
  "type": "node",
  "id": 8199361605,
  "lat": 53.8452933,
  "lon": -1.6911315
},
{
  "type": "node",
  "id": 8199361600,
  "lat": 53.8451905,
  "lon": -1.6907292
},
{
  "type": "node",
  "id": 8199361601,
  "lat": 53.8451288,
  "lon": -1.6907560
},
{
  "type": "node",
  "id": 32038872,
  "lat": 53.8607966,
  "lon": -1.7331910
},
{
  "type": "node",
  "id": 4209682522,
  "lat": 53.8718868,
  "lon": -1.7118459
},
{
  "type": "node",
  "id": 4209682523,
  "lat": 53.8719208,
  "lon": -1.7120663
},
{
  "type": "node",
  "id": 4209682524,
  "lat": 53.8720503,
  "lon": -1.7120090
},
{
  "type": "node",
  "id": 4209682525,
  "lat": 53.8720164,
  "lon": -1.7117886
},
{
  "type": "node",
  "id": 4209682526,
  "lat": 53.8720095,
  "lon": -1.7121199
},
{
  "type": "node",
  "id": 4209682527,
  "lat": 53.8718919,
  "lon": -1.7121684
},
{
  "type": "node",
  "id": 4209682528,
  "lat": 53.8719110,
  "lon": -1.7123014
},
{
  "type": "node",
  "id": 4209682529,
  "lat": 53.8719334,
  "lon": -1.7122922
},
{
  "type": "node",
  "id": 4209682530,
  "lat": 53.8719430,
  "lon": -1.7123588
},
{
  "type": "node",
  "id": 4209682531,
  "lat": 53.8718101,
  "lon": -1.7124138
},
{
  "type": "node",
  "id": 4209682532,
  "lat": 53.8718386,
  "lon": -1.7126121
},
{
  "type": "node",
  "id": 4209682533,
  "lat": 53.8719851,
  "lon": -1.7125515
},
{
  "type": "node",
  "id": 4209682534,
  "lat": 53.8719725,
  "lon": -1.7124643
},
{
  "type": "node",
  "id": 4209682535,
  "lat": 53.8719949,
  "lon": -1.7124551
},
{
  "type": "node",
  "id": 4209682536,
  "lat": 53.8720392,
  "lon": -1.7124976
},
{
  "type": "node",
  "id": 4209682537,
  "lat": 53.8720080,
  "lon": -1.7125908
},
{
  "type": "node",
  "id": 4209682538,
  "lat": 53.8721128,
  "lon": -1.7126914
},
{
  "type": "node",
  "id": 4209682539,
  "lat": 53.8721419,
  "lon": -1.7126044
},
{
  "type": "node",
  "id": 4209682540,
  "lat": 53.8721735,
  "lon": -1.7126347
},
{
  "type": "node",
  "id": 4209682541,
  "lat": 53.8721907,
  "lon": -1.7125832
},
{
  "type": "node",
  "id": 4209682542,
  "lat": 53.8721563,
  "lon": -1.7125500
},
{
  "type": "node",
  "id": 4209682543,
  "lat": 53.8721784,
  "lon": -1.7124838
},
{
  "type": "node",
  "id": 4209682544,
  "lat": 53.8720805,
  "lon": -1.7123899
},
{
  "type": "node",
  "id": 4209682545,
  "lat": 53.8720531,
  "lon": -1.7124719
},
{
  "type": "node",
  "id": 4209682546,
  "lat": 53.8720081,
  "lon": -1.7124287
},
{
  "type": "node",
  "id": 4209682547,
  "lat": 53.8720017,
  "lon": -1.7123843
},
{
  "type": "node",
  "id": 4209682548,
  "lat": 53.8720514,
  "lon": -1.7123639
},
{
  "type": "node",
  "id": 4209682549,
  "lat": 53.8720419,
  "lon": -1.7122975
},
{
  "type": "node",
  "id": 4209682550,
  "lat": 53.8719806,
  "lon": -1.7123227
},
{
  "type": "node",
  "id": 4209682551,
  "lat": 53.8719721,
  "lon": -1.7122635
},
{
  "type": "node",
  "id": 4209682552,
  "lat": 53.8720268,
  "lon": -1.7122409
},
{
  "type": "node",
  "id": 4209682553,
  "lat": 53.8717522,
  "lon": -1.7126922
},
{
  "type": "node",
  "id": 4209682554,
  "lat": 53.8716858,
  "lon": -1.7126460
},
{
  "type": "node",
  "id": 4209682555,
  "lat": 53.8716507,
  "lon": -1.7127915
},
{
  "type": "node",
  "id": 4209682556,
  "lat": 53.8717171,
  "lon": -1.7128376
},
{
  "type": "node",
  "id": 3191896313,
  "lat": 53.8685996,
  "lon": -1.7045967
},
{
  "type": "node",
  "id": 3191896328,
  "lat": 53.8688663,
  "lon": -1.7052534
},
{
  "type": "node",
  "id": 3191896358,
  "lat": 53.8685070,
  "lon": -1.7048184
},
{
  "type": "node",
  "id": 3191897893,
  "lat": 53.8690322,
  "lon": -1.7048588
},
{
  "type": "node",
  "id": 6027564183,
  "lat": 53.8692417,
  "lon": -1.7043657
},
{
  "type": "node",
  "id": 4198178416,
  "lat": 53.8752512,
  "lon": -1.7111942
},
{
  "type": "node",
  "id": 4198178417,
  "lat": 53.8751668,
  "lon": -1.7111356
},
{
  "type": "node",
  "id": 4198178418,
  "lat": 53.8751949,
  "lon": -1.7110155
},
{
  "type": "node",
  "id": 4198178419,
  "lat": 53.8752803,
  "lon": -1.7110709
},
{
  "type": "node",
  "id": 4198178681,
  "lat": 53.8747102,
  "lon": -1.7121445
},
{
  "type": "node",
  "id": 4198178682,
  "lat": 53.8746748,
  "lon": -1.7120905
},
{
  "type": "node",
  "id": 4198178683,
  "lat": 53.8746638,
  "lon": -1.7121114
},
{
  "type": "node",
  "id": 4198178684,
  "lat": 53.8746286,
  "lon": -1.7120577
},
{
  "type": "node",
  "id": 4198178685,
  "lat": 53.8746432,
  "lon": -1.7120301
},
{
  "type": "node",
  "id": 4198178686,
  "lat": 53.8745259,
  "lon": -1.7118514
},
{
  "type": "node",
  "id": 4198178687,
  "lat": 53.8745546,
  "lon": -1.7117972
},
{
  "type": "node",
  "id": 4198178688,
  "lat": 53.8743672,
  "lon": -1.7115115
},
{
  "type": "node",
  "id": 4198178689,
  "lat": 53.8744412,
  "lon": -1.7113718
},
{
  "type": "node",
  "id": 4198178690,
  "lat": 53.8745506,
  "lon": -1.7115387
},
{
  "type": "node",
  "id": 4198178691,
  "lat": 53.8746044,
  "lon": -1.7114372
},
{
  "type": "node",
  "id": 4198178692,
  "lat": 53.8746820,
  "lon": -1.7115554
},
{
  "type": "node",
  "id": 4198178693,
  "lat": 53.8746312,
  "lon": -1.7116513
},
{
  "type": "node",
  "id": 4198178694,
  "lat": 53.8748195,
  "lon": -1.7119383
},
{
  "type": "node",
  "id": 4207576580,
  "lat": 53.8752844,
  "lon": -1.7124880
},
{
  "type": "node",
  "id": 4207576581,
  "lat": 53.8752820,
  "lon": -1.7124311
},
{
  "type": "node",
  "id": 4207576582,
  "lat": 53.8751561,
  "lon": -1.7123579
},
{
  "type": "node",
  "id": 4207576583,
  "lat": 53.8750483,
  "lon": -1.7125794
},
{
  "type": "node",
  "id": 4207576584,
  "lat": 53.8750543,
  "lon": -1.7126425
},
{
  "type": "node",
  "id": 4207576585,
  "lat": 53.8751921,
  "lon": -1.7128620
},
{
  "type": "node",
  "id": 4207576586,
  "lat": 53.8754350,
  "lon": -1.7131004
},
{
  "type": "node",
  "id": 4207576587,
  "lat": 53.8754730,
  "lon": -1.7129891
},
{
  "type": "node",
  "id": 4207576588,
  "lat": 53.8754644,
  "lon": -1.7129806
},
{
  "type": "node",
  "id": 4207576589,
  "lat": 53.8755043,
  "lon": -1.7128637
},
{
  "type": "node",
  "id": 4207576590,
  "lat": 53.8752751,
  "lon": -1.7126383
},
{
  "type": "node",
  "id": 4207576591,
  "lat": 53.8752688,
  "lon": -1.7126567
},
{
  "type": "node",
  "id": 4207576592,
  "lat": 53.8752273,
  "lon": -1.7125896
},
{
  "type": "node",
  "id": 8726371593,
  "lat": 53.8752457,
  "lon": -1.7126193
},
{
  "type": "node",
  "id": 268898072,
  "lat": 53.8648752,
  "lon": -1.6982654
},
{
  "type": "node",
  "id": 268898073,
  "lat": 53.8651343,
  "lon": -1.6985078
},
{
  "type": "node",
  "id": 4078543707,
  "lat": 53.8619762,
  "lon": -1.7036154
},
{
  "type": "node",
  "id": 4078543708,
  "lat": 53.8618898,
  "lon": -1.7036057
},
{
  "type": "node",
  "id": 4078543709,
  "lat": 53.8618996,
  "lon": -1.7033525
},
{
  "type": "node",
  "id": 4078543710,
  "lat": 53.8619860,
  "lon": -1.7033621
},
{
  "type": "node",
  "id": 1621715344,
  "lat": 53.8689935,
  "lon": -1.6974733
},
{
  "type": "node",
  "id": 1621715357,
  "lat": 53.8687341,
  "lon": -1.6974948
},
{
  "type": "node",
  "id": 1621715361,
  "lat": 53.8686139,
  "lon": -1.6973929
},
{
  "type": "node",
  "id": 3191897880,
  "lat": 53.8688821,
  "lon": -1.7039273
},
{
  "type": "node",
  "id": 3799724112,
  "lat": 53.8686597,
  "lon": -1.6974317
},
{
  "type": "node",
  "id": 1621715228,
  "lat": 53.8687088,
  "lon": -1.6971625
},
{
  "type": "node",
  "id": 1621715257,
  "lat": 53.8688448,
  "lon": -1.6970391
},
{
  "type": "node",
  "id": 1621715292,
  "lat": 53.8689777,
  "lon": -1.6970284
},
{
  "type": "node",
  "id": 1621715299,
  "lat": 53.8690694,
  "lon": -1.6970230
},
{
  "type": "node",
  "id": 1621715301,
  "lat": 53.8692023,
  "lon": -1.6969855
},
{
  "type": "node",
  "id": 1621715328,
  "lat": 53.8692151,
  "lon": -1.6973628
},
{
  "type": "node",
  "id": 1621715365,
  "lat": 53.8694015,
  "lon": -1.6969481
},
{
  "type": "node",
  "id": 1621715367,
  "lat": 53.8686139,
  "lon": -1.6972590
},
{
  "type": "node",
  "id": 1621715377,
  "lat": 53.8693035,
  "lon": -1.6969855
},
{
  "type": "node",
  "id": 1621715383,
  "lat": 53.8694332,
  "lon": -1.6969694
},
{
  "type": "node",
  "id": 1621715388,
  "lat": 53.8695541,
  "lon": -1.6972013
},
{
  "type": "node",
  "id": 1621715485,
  "lat": 53.8694980,
  "lon": -1.6972872
},
{
  "type": "node",
  "id": 1621715526,
  "lat": 53.8693762,
  "lon": -1.6973449
},
{
  "type": "node",
  "id": 8228372124,
  "lat": 53.8694970,
  "lon": -1.6970009
},
{
  "type": "node",
  "id": 8228372125,
  "lat": 53.8695517,
  "lon": -1.6970661
},
{
  "type": "node",
  "id": 8228372129,
  "lat": 53.8695578,
  "lon": -1.6971621
},
{
  "type": "node",
  "id": 8257999714,
  "lat": 53.8695575,
  "lon": -1.6971013
},
{
  "type": "node",
  "id": 8257999715,
  "lat": 53.8697000,
  "lon": -1.6971684
},
{
  "type": "node",
  "id": 8257999716,
  "lat": 53.8697007,
  "lon": -1.6971248
},
{
  "type": "node",
  "id": 2671250376,
  "lat": 53.8657539,
  "lon": -1.6846502
},
{
  "type": "node",
  "id": 2671250405,
  "lat": 53.8654767,
  "lon": -1.6844374
},
{
  "type": "node",
  "id": 2671250407,
  "lat": 53.8655482,
  "lon": -1.6845785
},
{
  "type": "node",
  "id": 2671250421,
  "lat": 53.8658815,
  "lon": -1.6844753
},
{
  "type": "node",
  "id": 2671250444,
  "lat": 53.8655556,
  "lon": -1.6845401
},
{
  "type": "node",
  "id": 2671250449,
  "lat": 53.8654590,
  "lon": -1.6845290
},
{
  "type": "node",
  "id": 2671250491,
  "lat": 53.8657408,
  "lon": -1.6847179
},
{
  "type": "node",
  "id": 2671250503,
  "lat": 53.8655500,
  "lon": -1.6842913
},
{
  "type": "node",
  "id": 2671250511,
  "lat": 53.8655174,
  "lon": -1.6844600
},
{
  "type": "node",
  "id": 3718505419,
  "lat": 53.8650389,
  "lon": -1.6858718
},
{
  "type": "node",
  "id": 3718505420,
  "lat": 53.8650288,
  "lon": -1.6859579
},
{
  "type": "node",
  "id": 3718505421,
  "lat": 53.8647602,
  "lon": -1.6858674
},
{
  "type": "node",
  "id": 3718505422,
  "lat": 53.8647228,
  "lon": -1.6861862
},
{
  "type": "node",
  "id": 3718505423,
  "lat": 53.8649634,
  "lon": -1.6862673
},
{
  "type": "node",
  "id": 3718505424,
  "lat": 53.8649597,
  "lon": -1.6862986
},
{
  "type": "node",
  "id": 3718505625,
  "lat": 53.8649362,
  "lon": -1.6862907
},
{
  "type": "node",
  "id": 3718505626,
  "lat": 53.8649194,
  "lon": -1.6864341
},
{
  "type": "node",
  "id": 3718505627,
  "lat": 53.8646771,
  "lon": -1.6863523
},
{
  "type": "node",
  "id": 3718505628,
  "lat": 53.8646876,
  "lon": -1.6862633
},
{
  "type": "node",
  "id": 3718505629,
  "lat": 53.8646516,
  "lon": -1.6862512
},
{
  "type": "node",
  "id": 3718505630,
  "lat": 53.8647140,
  "lon": -1.6857192
},
{
  "type": "node",
  "id": 3718505631,
  "lat": 53.8647826,
  "lon": -1.6857423
},
{
  "type": "node",
  "id": 3718505632,
  "lat": 53.8647895,
  "lon": -1.6856836
},
{
  "type": "node",
  "id": 3718505633,
  "lat": 53.8650980,
  "lon": -1.6857877
},
{
  "type": "node",
  "id": 3718505634,
  "lat": 53.8650863,
  "lon": -1.6858878
},
{
  "type": "node",
  "id": 3841580163,
  "lat": 53.8658002,
  "lon": -1.6847509
},
{
  "type": "node",
  "id": 3841580164,
  "lat": 53.8658256,
  "lon": -1.6847650
},
{
  "type": "node",
  "id": 3841580165,
  "lat": 53.8658362,
  "lon": -1.6847101
},
{
  "type": "node",
  "id": 3841580169,
  "lat": 53.8658557,
  "lon": -1.6844610
},
{
  "type": "node",
  "id": 3841580170,
  "lat": 53.8658600,
  "lon": -1.6845868
},
{
  "type": "node",
  "id": 3841580171,
  "lat": 53.8658486,
  "lon": -1.6846460
},
{
  "type": "node",
  "id": 3846261018,
  "lat": 53.8279223,
  "lon": -1.6653749
},
{
  "type": "node",
  "id": 3846261019,
  "lat": 53.8276476,
  "lon": -1.6649481
},
{
  "type": "node",
  "id": 3846261020,
  "lat": 53.8275660,
  "lon": -1.6650944
},
{
  "type": "node",
  "id": 3846261021,
  "lat": 53.8278431,
  "lon": -1.6655233
},
{
  "type": "node",
  "id": 5178625983,
  "lat": 53.8320392,
  "lon": -1.6665032
},
{
  "type": "node",
  "id": 5178625984,
  "lat": 53.8320097,
  "lon": -1.6667042
},
{
  "type": "node",
  "id": 5178625985,
  "lat": 53.8320853,
  "lon": -1.6666141
},
{
  "type": "node",
  "id": 5178625986,
  "lat": 53.8321188,
  "lon": -1.6664083
},
{
  "type": "node",
  "id": 5178625987,
  "lat": 53.8320599,
  "lon": -1.6662667
},
{
  "type": "node",
  "id": 5178625988,
  "lat": 53.8319048,
  "lon": -1.6664518
},
{
  "type": "node",
  "id": 5178626018,
  "lat": 53.8318719,
  "lon": -1.6660428
},
{
  "type": "node",
  "id": 5178626019,
  "lat": 53.8318294,
  "lon": -1.6660892
},
{
  "type": "node",
  "id": 5178626020,
  "lat": 53.8318032,
  "lon": -1.6659581
},
{
  "type": "node",
  "id": 5178626121,
  "lat": 53.8317377,
  "lon": -1.6660297
},
{
  "type": "node",
  "id": 5178626122,
  "lat": 53.8317666,
  "lon": -1.6658617
},
{
  "type": "node",
  "id": 5178626123,
  "lat": 53.8317010,
  "lon": -1.6659332
},
{
  "type": "node",
  "id": 5178626124,
  "lat": 53.8319350,
  "lon": -1.6660001
},
{
  "type": "node",
  "id": 5178626125,
  "lat": 53.8318790,
  "lon": -1.6660613
},
{
  "type": "node",
  "id": 5178626126,
  "lat": 53.8318291,
  "lon": -1.6659299
},
{
  "type": "node",
  "id": 5178626127,
  "lat": 53.8317778,
  "lon": -1.6661717
},
{
  "type": "node",
  "id": 5178626128,
  "lat": 53.8318364,
  "lon": -1.6661077
},
{
  "type": "node",
  "id": 5178626129,
  "lat": 53.8319280,
  "lon": -1.6659816
},
{
  "type": "node",
  "id": 5178626130,
  "lat": 53.8318851,
  "lon": -1.6658688
},
{
  "type": "node",
  "id": 5178626131,
  "lat": 53.8317279,
  "lon": -1.6660404
},
{
  "type": "node",
  "id": 26308138,
  "lat": 53.8262280,
  "lon": -1.6643158
},
{
  "type": "node",
  "id": 299615179,
  "lat": 53.8266072,
  "lon": -1.6637407
},
{
  "type": "node",
  "id": 299615180,
  "lat": 53.8277462,
  "lon": -1.6620508
},
{
  "type": "node",
  "id": 26308135,
  "lat": 53.8295816,
  "lon": -1.6592690
},
{
  "type": "node",
  "id": 26308136,
  "lat": 53.8289701,
  "lon": -1.6602174
},
{
  "type": "node",
  "id": 299615181,
  "lat": 53.8281606,
  "lon": -1.6614217
},
{
  "type": "node",
  "id": 3919161265,
  "lat": 53.8342684,
  "lon": -1.6443168
},
{
  "type": "node",
  "id": 3919161266,
  "lat": 53.8342525,
  "lon": -1.6442047
},
{
  "type": "node",
  "id": 3919161267,
  "lat": 53.8342231,
  "lon": -1.6442166
},
{
  "type": "node",
  "id": 3919161268,
  "lat": 53.8342200,
  "lon": -1.6441944
},
{
  "type": "node",
  "id": 3919161269,
  "lat": 53.8342303,
  "lon": -1.6441902
},
{
  "type": "node",
  "id": 3919161270,
  "lat": 53.8341925,
  "lon": -1.6439219
},
{
  "type": "node",
  "id": 3919161271,
  "lat": 53.8342020,
  "lon": -1.6439180
},
{
  "type": "node",
  "id": 3919161272,
  "lat": 53.8341866,
  "lon": -1.6438089
},
{
  "type": "node",
  "id": 3919161273,
  "lat": 53.8341344,
  "lon": -1.6438301
},
{
  "type": "node",
  "id": 3919161274,
  "lat": 53.8341486,
  "lon": -1.6439310
},
{
  "type": "node",
  "id": 3919161275,
  "lat": 53.8341409,
  "lon": -1.6439342
},
{
  "type": "node",
  "id": 3919161276,
  "lat": 53.8341989,
  "lon": -1.6443450
},
{
  "type": "node",
  "id": 3923670522,
  "lat": 53.8321676,
  "lon": -1.6369043
},
{
  "type": "node",
  "id": 3923670523,
  "lat": 53.8321603,
  "lon": -1.6365771
},
{
  "type": "node",
  "id": 3923670524,
  "lat": 53.8320832,
  "lon": -1.6365820
},
{
  "type": "node",
  "id": 3923670525,
  "lat": 53.8320854,
  "lon": -1.6366810
},
{
  "type": "node",
  "id": 3923670526,
  "lat": 53.8319847,
  "lon": -1.6366874
},
{
  "type": "node",
  "id": 3923670527,
  "lat": 53.8319876,
  "lon": -1.6368157
},
{
  "type": "node",
  "id": 3923670528,
  "lat": 53.8320870,
  "lon": -1.6368094
},
{
  "type": "node",
  "id": 3923670529,
  "lat": 53.8320892,
  "lon": -1.6369093
},
{
  "type": "node",
  "id": 3923670530,
  "lat": 53.8323081,
  "lon": -1.6365282
},
{
  "type": "node",
  "id": 3923670531,
  "lat": 53.8323018,
  "lon": -1.6362161
},
{
  "type": "node",
  "id": 3923670532,
  "lat": 53.8322286,
  "lon": -1.6362203
},
{
  "type": "node",
  "id": 3923670533,
  "lat": 53.8322304,
  "lon": -1.6363071
},
{
  "type": "node",
  "id": 3923670534,
  "lat": 53.8321260,
  "lon": -1.6363132
},
{
  "type": "node",
  "id": 3923670535,
  "lat": 53.8321284,
  "lon": -1.6364325
},
{
  "type": "node",
  "id": 3923670536,
  "lat": 53.8322364,
  "lon": -1.6364262
},
{
  "type": "node",
  "id": 3923670537,
  "lat": 53.8322385,
  "lon": -1.6365323
},
{
  "type": "node",
  "id": 3929191900,
  "lat": 53.8294094,
  "lon": -1.6282903
},
{
  "type": "node",
  "id": 3929191901,
  "lat": 53.8294931,
  "lon": -1.6281319
},
{
  "type": "node",
  "id": 3929191902,
  "lat": 53.8293630,
  "lon": -1.6279346
},
{
  "type": "node",
  "id": 3929191903,
  "lat": 53.8292916,
  "lon": -1.6280697
},
{
  "type": "node",
  "id": 3929191904,
  "lat": 53.8293652,
  "lon": -1.6281812
},
{
  "type": "node",
  "id": 3929191905,
  "lat": 53.8293529,
  "lon": -1.6282046
},
{
  "type": "node",
  "id": 3929191906,
  "lat": 53.8293934,
  "lon": -1.6279485
},
{
  "type": "node",
  "id": 3929191907,
  "lat": 53.8292948,
  "lon": -1.6278010
},
{
  "type": "node",
  "id": 3929191908,
  "lat": 53.8294778,
  "lon": -1.6274498
},
{
  "type": "node",
  "id": 3929191909,
  "lat": 53.8295764,
  "lon": -1.6275973
},
{
  "type": "node",
  "id": 4001266022,
  "lat": 53.8402322,
  "lon": -1.6669122
},
{
  "type": "node",
  "id": 4001266023,
  "lat": 53.8402804,
  "lon": -1.6668089
},
{
  "type": "node",
  "id": 4001266024,
  "lat": 53.8403420,
  "lon": -1.6668915
},
{
  "type": "node",
  "id": 4001266025,
  "lat": 53.8403871,
  "lon": -1.6667947
},
{
  "type": "node",
  "id": 4001266026,
  "lat": 53.8405855,
  "lon": -1.6670608
},
{
  "type": "node",
  "id": 4001266027,
  "lat": 53.8405980,
  "lon": -1.6670339
},
{
  "type": "node",
  "id": 4001266028,
  "lat": 53.8406522,
  "lon": -1.6671063
},
{
  "type": "node",
  "id": 4001266029,
  "lat": 53.8406862,
  "lon": -1.6670332
},
{
  "type": "node",
  "id": 4001266030,
  "lat": 53.8407411,
  "lon": -1.6671065
},
{
  "type": "node",
  "id": 4001266031,
  "lat": 53.8406826,
  "lon": -1.6672322
},
{
  "type": "node",
  "id": 4001266032,
  "lat": 53.8406541,
  "lon": -1.6671941
},
{
  "type": "node",
  "id": 4001266033,
  "lat": 53.8405692,
  "lon": -1.6673767
},
{
  "type": "node",
  "id": 4001266034,
  "lat": 53.8404672,
  "lon": -1.6672406
},
{
  "type": "node",
  "id": 4001266035,
  "lat": 53.8404529,
  "lon": -1.6672714
},
{
  "type": "node",
  "id": 4001266036,
  "lat": 53.8404208,
  "lon": -1.6672286
},
{
  "type": "node",
  "id": 4001266037,
  "lat": 53.8404319,
  "lon": -1.6671803
},
{
  "type": "node",
  "id": 4001266038,
  "lat": 53.8404397,
  "lon": -1.6667391
},
{
  "type": "node",
  "id": 4001266039,
  "lat": 53.8405284,
  "lon": -1.6668680
},
{
  "type": "node",
  "id": 4001266040,
  "lat": 53.8405047,
  "lon": -1.6669149
},
{
  "type": "node",
  "id": 4001266041,
  "lat": 53.8405604,
  "lon": -1.6669957
},
{
  "type": "node",
  "id": 4001266042,
  "lat": 53.8405796,
  "lon": -1.6669577
},
{
  "type": "node",
  "id": 4001266043,
  "lat": 53.8406175,
  "lon": -1.6670127
},
{
  "type": "node",
  "id": 4001266044,
  "lat": 53.8406482,
  "lon": -1.6669520
},
{
  "type": "node",
  "id": 4001266045,
  "lat": 53.8405712,
  "lon": -1.6668402
},
{
  "type": "node",
  "id": 4001266046,
  "lat": 53.8406233,
  "lon": -1.6667371
},
{
  "type": "node",
  "id": 4001266047,
  "lat": 53.8405791,
  "lon": -1.6666730
},
{
  "type": "node",
  "id": 4001266048,
  "lat": 53.8405462,
  "lon": -1.6667382
},
{
  "type": "node",
  "id": 4001266049,
  "lat": 53.8404850,
  "lon": -1.6666494
},
{
  "type": "node",
  "id": 4001266050,
  "lat": 53.8407891,
  "lon": -1.6669137
},
{
  "type": "node",
  "id": 4001266051,
  "lat": 53.8405954,
  "lon": -1.6666448
},
{
  "type": "node",
  "id": 4001266052,
  "lat": 53.8406517,
  "lon": -1.6665283
},
{
  "type": "node",
  "id": 4001266053,
  "lat": 53.8408454,
  "lon": -1.6667972
},
{
  "type": "node",
  "id": 4642116847,
  "lat": 53.8349363,
  "lon": -1.6708232
},
{
  "type": "node",
  "id": 4642116848,
  "lat": 53.8349910,
  "lon": -1.6706310
},
{
  "type": "node",
  "id": 4642116850,
  "lat": 53.8350288,
  "lon": -1.6708986
},
{
  "type": "node",
  "id": 4829251025,
  "lat": 53.8351622,
  "lon": -1.6708725
},
{
  "type": "node",
  "id": 4829251026,
  "lat": 53.8352113,
  "lon": -1.6706998
},
{
  "type": "node",
  "id": 4829251027,
  "lat": 53.8351446,
  "lon": -1.6706454
},
{
  "type": "node",
  "id": 4829251028,
  "lat": 53.8351190,
  "lon": -1.6707355
},
{
  "type": "node",
  "id": 6742420509,
  "lat": 53.8350599,
  "lon": -1.6707890
},
{
  "type": "node",
  "id": 8199361520,
  "lat": 53.8421977,
  "lon": -1.6567290
},
{
  "type": "node",
  "id": 8199361521,
  "lat": 53.8421414,
  "lon": -1.6565948
},
{
  "type": "node",
  "id": 8199361522,
  "lat": 53.8420790,
  "lon": -1.6565846
},
{
  "type": "node",
  "id": 8199361523,
  "lat": 53.8420538,
  "lon": -1.6566558
},
{
  "type": "node",
  "id": 8199361524,
  "lat": 53.8420718,
  "lon": -1.6567533
},
{
  "type": "node",
  "id": 8199361525,
  "lat": 53.8421426,
  "lon": -1.6567798
},
{
  "type": "node",
  "id": 8199361526,
  "lat": 53.8421725,
  "lon": -1.6567798
},
{
  "type": "node",
  "id": 745108895,
  "lat": 53.8592245,
  "lon": -1.6561447
},
{
  "type": "node",
  "id": 2228853750,
  "lat": 53.8585418,
  "lon": -1.6537597
},
{
  "type": "node",
  "id": 2228853751,
  "lat": 53.8585549,
  "lon": -1.6543213
},
{
  "type": "node",
  "id": 2228853754,
  "lat": 53.8596546,
  "lon": -1.6535071
},
{
  "type": "node",
  "id": 2228853755,
  "lat": 53.8596556,
  "lon": -1.6535778
},
{
  "type": "node",
  "id": 2228853757,
  "lat": 53.8601206,
  "lon": -1.6561644
},
{
  "type": "node",
  "id": 8331243084,
  "lat": 53.8595067,
  "lon": -1.6562208
},
{
  "type": "node",
  "id": 3851807685,
  "lat": 53.8349795,
  "lon": -1.6454798
},
{
  "type": "node",
  "id": 3851807686,
  "lat": 53.8349443,
  "lon": -1.6453295
},
{
  "type": "node",
  "id": 3851807687,
  "lat": 53.8351640,
  "lon": -1.6451816
},
{
  "type": "node",
  "id": 3851807688,
  "lat": 53.8351992,
  "lon": -1.6453319
},
{
  "type": "node",
  "id": 3851807693,
  "lat": 53.8354805,
  "lon": -1.6450519
},
{
  "type": "node",
  "id": 5330765822,
  "lat": 53.8354446,
  "lon": -1.6450961
},
{
  "type": "node",
  "id": 5330765823,
  "lat": 53.8354007,
  "lon": -1.6449630
},
{
  "type": "node",
  "id": 5330765824,
  "lat": 53.8351992,
  "lon": -1.6451539
},
{
  "type": "node",
  "id": 5330765825,
  "lat": 53.8352432,
  "lon": -1.6452871
},
{
  "type": "node",
  "id": 3851807694,
  "lat": 53.8354241,
  "lon": -1.6449382
},
{
  "type": "node",
  "id": 3851807695,
  "lat": 53.8356002,
  "lon": -1.6446871
},
{
  "type": "node",
  "id": 3851807696,
  "lat": 53.8356567,
  "lon": -1.6448007
},
{
  "type": "node",
  "id": 8490032520,
  "lat": 53.8468977,
  "lon": -1.6431966
},
{
  "type": "node",
  "id": 8490032521,
  "lat": 53.8468480,
  "lon": -1.6432446
},
{
  "type": "node",
  "id": 8490032522,
  "lat": 53.8468174,
  "lon": -1.6432498
},
{
  "type": "node",
  "id": 8490032523,
  "lat": 53.8467998,
  "lon": -1.6432265
},
{
  "type": "node",
  "id": 8490032524,
  "lat": 53.8467890,
  "lon": -1.6431759
},
{
  "type": "node",
  "id": 8490032525,
  "lat": 53.8467967,
  "lon": -1.6431201
},
{
  "type": "node",
  "id": 8490032526,
  "lat": 53.8468250,
  "lon": -1.6430656
},
{
  "type": "node",
  "id": 8490032527,
  "lat": 53.8468686,
  "lon": -1.6430358
},
{
  "type": "node",
  "id": 8490032528,
  "lat": 53.8469000,
  "lon": -1.6430617
},
{
  "type": "node",
  "id": 8490032529,
  "lat": 53.8469100,
  "lon": -1.6431343
},
{
  "type": "node",
  "id": 3979917508,
  "lat": 53.8474498,
  "lon": -1.6378285
},
{
  "type": "node",
  "id": 3979917509,
  "lat": 53.8473723,
  "lon": -1.6375347
},
{
  "type": "node",
  "id": 3979917510,
  "lat": 53.8474293,
  "lon": -1.6374915
},
{
  "type": "node",
  "id": 3979917511,
  "lat": 53.8473959,
  "lon": -1.6373646
},
{
  "type": "node",
  "id": 3979917512,
  "lat": 53.8473787,
  "lon": -1.6373776
},
{
  "type": "node",
  "id": 3979917513,
  "lat": 53.8473500,
  "lon": -1.6372689
},
{
  "type": "node",
  "id": 3979917514,
  "lat": 53.8471651,
  "lon": -1.6374090
},
{
  "type": "node",
  "id": 3979917515,
  "lat": 53.8472192,
  "lon": -1.6376143
},
{
  "type": "node",
  "id": 3979917516,
  "lat": 53.8472340,
  "lon": -1.6376031
},
{
  "type": "node",
  "id": 3979917517,
  "lat": 53.8473207,
  "lon": -1.6379319
},
{
  "type": "node",
  "id": 3979917518,
  "lat": 53.8474620,
  "lon": -1.6373570
},
{
  "type": "node",
  "id": 3979917519,
  "lat": 53.8474118,
  "lon": -1.6371765
},
{
  "type": "node",
  "id": 3979917520,
  "lat": 53.8475414,
  "lon": -1.6370730
},
{
  "type": "node",
  "id": 3979917521,
  "lat": 53.8475362,
  "lon": -1.6370542
},
{
  "type": "node",
  "id": 3979917522,
  "lat": 53.8476074,
  "lon": -1.6369973
},
{
  "type": "node",
  "id": 3979917523,
  "lat": 53.8476540,
  "lon": -1.6371651
},
{
  "type": "node",
  "id": 3979917524,
  "lat": 53.8476300,
  "lon": -1.6371842
},
{
  "type": "node",
  "id": 3979917525,
  "lat": 53.8476618,
  "lon": -1.6372987
},
{
  "type": "node",
  "id": 3979917526,
  "lat": 53.8475634,
  "lon": -1.6373773
},
{
  "type": "node",
  "id": 3979917527,
  "lat": 53.8475404,
  "lon": -1.6372944
},
{
  "type": "node",
  "id": 3979917528,
  "lat": 53.8476455,
  "lon": -1.6377682
},
{
  "type": "node",
  "id": 3979917529,
  "lat": 53.8476346,
  "lon": -1.6377264
},
{
  "type": "node",
  "id": 3979917530,
  "lat": 53.8476194,
  "lon": -1.6377377
},
{
  "type": "node",
  "id": 3979917531,
  "lat": 53.8475817,
  "lon": -1.6375924
},
{
  "type": "node",
  "id": 8300734228,
  "lat": 53.8474379,
  "lon": -1.6378375
},
{
  "type": "node",
  "id": 8300734229,
  "lat": 53.8473994,
  "lon": -1.6378723
},
{
  "type": "node",
  "id": 8300734230,
  "lat": 53.8474156,
  "lon": -1.6379339
},
{
  "type": "node",
  "id": 8300734231,
  "lat": 53.8474554,
  "lon": -1.6379037
},
{
  "type": "node",
  "id": 3898601893,
  "lat": 53.8468551,
  "lon": -1.6303579
},
{
  "type": "node",
  "id": 3898601894,
  "lat": 53.8468795,
  "lon": -1.6301938
},
{
  "type": "node",
  "id": 3898601895,
  "lat": 53.8468287,
  "lon": -1.6301720
},
{
  "type": "node",
  "id": 3898601896,
  "lat": 53.8468524,
  "lon": -1.6300134
},
{
  "type": "node",
  "id": 3898601897,
  "lat": 53.8469566,
  "lon": -1.6300581
},
{
  "type": "node",
  "id": 3898601898,
  "lat": 53.8469678,
  "lon": -1.6299829
},
{
  "type": "node",
  "id": 3898601899,
  "lat": 53.8470724,
  "lon": -1.6300277
},
{
  "type": "node",
  "id": 3898601900,
  "lat": 53.8470473,
  "lon": -1.6301961
},
{
  "type": "node",
  "id": 3898601901,
  "lat": 53.8471012,
  "lon": -1.6302192
},
{
  "type": "node",
  "id": 3898601902,
  "lat": 53.8470809,
  "lon": -1.6303554
},
{
  "type": "node",
  "id": 3898601903,
  "lat": 53.8469895,
  "lon": -1.6303162
},
{
  "type": "node",
  "id": 3898601904,
  "lat": 53.8469823,
  "lon": -1.6303646
},
{
  "type": "node",
  "id": 3898601905,
  "lat": 53.8469337,
  "lon": -1.6303438
},
{
  "type": "node",
  "id": 3898601906,
  "lat": 53.8469270,
  "lon": -1.6303887
},
{
  "type": "node",
  "id": 3898601908,
  "lat": 53.8468468,
  "lon": -1.6301795
},
{
  "type": "node",
  "id": 8863482039,
  "lat": 53.8471281,
  "lon": -1.6291859
},
{
  "type": "node",
  "id": 8863482040,
  "lat": 53.8471745,
  "lon": -1.6290719
},
{
  "type": "node",
  "id": 8863482041,
  "lat": 53.8470733,
  "lon": -1.6289556
},
{
  "type": "node",
  "id": 8863482042,
  "lat": 53.8470274,
  "lon": -1.6290673
},
{
  "type": "node",
  "id": 8863482043,
  "lat": 53.8470595,
  "lon": -1.6291066
},
{
  "type": "node",
  "id": 8863482044,
  "lat": 53.8470519,
  "lon": -1.6291240
},
{
  "type": "node",
  "id": 8863482045,
  "lat": 53.8470911,
  "lon": -1.6291716
},
{
  "type": "node",
  "id": 8863482046,
  "lat": 53.8470992,
  "lon": -1.6291527
},
{
  "type": "node",
  "id": 745108865,
  "lat": 53.8578226,
  "lon": -1.6481389
},
{
  "type": "node",
  "id": 745108910,
  "lat": 53.8598992,
  "lon": -1.6487141
},
{
  "type": "node",
  "id": 745109054,
  "lat": 53.8593685,
  "lon": -1.6474224
},
{
  "type": "node",
  "id": 1096081698,
  "lat": 53.8576810,
  "lon": -1.6500536
},
{
  "type": "node",
  "id": 1096081730,
  "lat": 53.8595968,
  "lon": -1.6478334
},
{
  "type": "node",
  "id": 1096081816,
  "lat": 53.8577759,
  "lon": -1.6505196
},
{
  "type": "node",
  "id": 2228853741,
  "lat": 53.8576311,
  "lon": -1.6486512
},
{
  "type": "node",
  "id": 2228853743,
  "lat": 53.8576479,
  "lon": -1.6494185
},
{
  "type": "node",
  "id": 2228853746,
  "lat": 53.8580590,
  "lon": -1.6477271
},
{
  "type": "node",
  "id": 2228853752,
  "lat": 53.8586644,
  "lon": -1.6469485
},
{
  "type": "node",
  "id": 3694673178,
  "lat": 53.8583857,
  "lon": -1.6473119
},
{
  "type": "node",
  "id": 8331243037,
  "lat": 53.8583486,
  "lon": -1.6514746
},
{
  "type": "node",
  "id": 8331243071,
  "lat": 53.8576473,
  "lon": -1.6493660
},
{
  "type": "node",
  "id": 3979917532,
  "lat": 53.8476948,
  "lon": -1.6375082
},
{
  "type": "node",
  "id": 3979917533,
  "lat": 53.8477000,
  "lon": -1.6375282
},
{
  "type": "node",
  "id": 3979917534,
  "lat": 53.8477189,
  "lon": -1.6375142
},
{
  "type": "node",
  "id": 3979917535,
  "lat": 53.8477622,
  "lon": -1.6376811
},
{
  "type": "node",
  "id": 8300734332,
  "lat": 53.8539059,
  "lon": -1.6355772
},
{
  "type": "node",
  "id": 8300734333,
  "lat": 53.8536859,
  "lon": -1.6356013
},
{
  "type": "node",
  "id": 8300734334,
  "lat": 53.8536464,
  "lon": -1.6356630
},
{
  "type": "node",
  "id": 8300734335,
  "lat": 53.8536084,
  "lon": -1.6356791
},
{
  "type": "node",
  "id": 8300734336,
  "lat": 53.8535467,
  "lon": -1.6356442
},
{
  "type": "node",
  "id": 8300734337,
  "lat": 53.8534882,
  "lon": -1.6356550
},
{
  "type": "node",
  "id": 8300734338,
  "lat": 53.8534360,
  "lon": -1.6357301
},
{
  "type": "node",
  "id": 8300734339,
  "lat": 53.8534107,
  "lon": -1.6358159
},
{
  "type": "node",
  "id": 8300734340,
  "lat": 53.8534012,
  "lon": -1.6359071
},
{
  "type": "node",
  "id": 8300734341,
  "lat": 53.8534091,
  "lon": -1.6360278
},
{
  "type": "node",
  "id": 8300734342,
  "lat": 53.8534328,
  "lon": -1.6360707
},
{
  "type": "node",
  "id": 8300734343,
  "lat": 53.8534993,
  "lon": -1.6360412
},
{
  "type": "node",
  "id": 8300734344,
  "lat": 53.8535087,
  "lon": -1.6359849
},
{
  "type": "node",
  "id": 8300734345,
  "lat": 53.8535594,
  "lon": -1.6359044
},
{
  "type": "node",
  "id": 8300734346,
  "lat": 53.8536780,
  "lon": -1.6358052
},
{
  "type": "node",
  "id": 8300734347,
  "lat": 53.8539172,
  "lon": -1.6357140
},
{
  "type": "node",
  "id": 8413297457,
  "lat": 53.8529455,
  "lon": -1.6350171
},
{
  "type": "node",
  "id": 8413297458,
  "lat": 53.8529673,
  "lon": -1.6349539
},
{
  "type": "node",
  "id": 8413297459,
  "lat": 53.8529510,
  "lon": -1.6348753
},
{
  "type": "node",
  "id": 8413297460,
  "lat": 53.8529228,
  "lon": -1.6348168
},
{
  "type": "node",
  "id": 8413297461,
  "lat": 53.8528646,
  "lon": -1.6348106
},
{
  "type": "node",
  "id": 8413297462,
  "lat": 53.8528256,
  "lon": -1.6348615
},
{
  "type": "node",
  "id": 8413297463,
  "lat": 53.8528310,
  "lon": -1.6349585
},
{
  "type": "node",
  "id": 8413297464,
  "lat": 53.8528664,
  "lon": -1.6350278
},
{
  "type": "node",
  "id": 8413297465,
  "lat": 53.8529055,
  "lon": -1.6350463
},
{
  "type": "node",
  "id": 4037135521,
  "lat": 53.8670068,
  "lon": -1.6761700
},
{
  "type": "node",
  "id": 4037135522,
  "lat": 53.8671186,
  "lon": -1.6755058
},
{
  "type": "node",
  "id": 4037135523,
  "lat": 53.8673081,
  "lon": -1.6751753
},
{
  "type": "node",
  "id": 4037135576,
  "lat": 53.8671678,
  "lon": -1.6755802
},
{
  "type": "node",
  "id": 745108825,
  "lat": 53.8656400,
  "lon": -1.6675255
},
{
  "type": "node",
  "id": 745108868,
  "lat": 53.8646691,
  "lon": -1.6657691
},
{
  "type": "node",
  "id": 745108921,
  "lat": 53.8667061,
  "lon": -1.6678136
},
{
  "type": "node",
  "id": 745108962,
  "lat": 53.8652302,
  "lon": -1.6674775
},
{
  "type": "node",
  "id": 745109016,
  "lat": 53.8673016,
  "lon": -1.6686400
},
{
  "type": "node",
  "id": 745109043,
  "lat": 53.8660770,
  "lon": -1.6677807
},
{
  "type": "node",
  "id": 1096081826,
  "lat": 53.8669969,
  "lon": -1.6678513
},
{
  "type": "node",
  "id": 2228853769,
  "lat": 53.8638449,
  "lon": -1.6650751
},
{
  "type": "node",
  "id": 2228853771,
  "lat": 53.8640431,
  "lon": -1.6652792
},
{
  "type": "node",
  "id": 2228853840,
  "lat": 53.8663987,
  "lon": -1.6678356
},
{
  "type": "node",
  "id": 2228853848,
  "lat": 53.8667469,
  "lon": -1.6679800
},
{
  "type": "node",
  "id": 2228853860,
  "lat": 53.8670246,
  "lon": -1.6678701
},
{
  "type": "node",
  "id": 2228853864,
  "lat": 53.8671580,
  "lon": -1.6687432
},
{
  "type": "node",
  "id": 5367574343,
  "lat": 53.8672339,
  "lon": -1.6686886
},
{
  "type": "node",
  "id": 8671429686,
  "lat": 53.8665946,
  "lon": -1.6678216
},
{
  "type": "node",
  "id": 18667957,
  "lat": 53.8680055,
  "lon": -1.6776380
},
{
  "type": "node",
  "id": 936454162,
  "lat": 53.8674320,
  "lon": -1.6769322
},
{
  "type": "node",
  "id": 1096081720,
  "lat": 53.8734481,
  "lon": -1.6731335
},
{
  "type": "node",
  "id": 1096081763,
  "lat": 53.8728945,
  "lon": -1.6731461
},
{
  "type": "node",
  "id": 1096081783,
  "lat": 53.8715706,
  "lon": -1.6723767
},
{
  "type": "node",
  "id": 1096081799,
  "lat": 53.8732407,
  "lon": -1.6730487
},
{
  "type": "node",
  "id": 1096081831,
  "lat": 53.8738758,
  "lon": -1.6738778
},
{
  "type": "node",
  "id": 1096081835,
  "lat": 53.8723649,
  "lon": -1.6729608
},
{
  "type": "node",
  "id": 1194217586,
  "lat": 53.8726575,
  "lon": -1.6733251
},
{
  "type": "node",
  "id": 1534369432,
  "lat": 53.8695285,
  "lon": -1.6754780
},
{
  "type": "node",
  "id": 1534369480,
  "lat": 53.8679179,
  "lon": -1.6775496
},
{
  "type": "node",
  "id": 1534369486,
  "lat": 53.8675370,
  "lon": -1.6745697
},
{
  "type": "node",
  "id": 2228853885,
  "lat": 53.8711577,
  "lon": -1.6717957
},
{
  "type": "node",
  "id": 2228853886,
  "lat": 53.8713817,
  "lon": -1.6720501
},
{
  "type": "node",
  "id": 2228853887,
  "lat": 53.8719409,
  "lon": -1.6726185
},
{
  "type": "node",
  "id": 2824831220,
  "lat": 53.8689450,
  "lon": -1.6736521
},
{
  "type": "node",
  "id": 2824831221,
  "lat": 53.8688612,
  "lon": -1.6735689
},
{
  "type": "node",
  "id": 2824831222,
  "lat": 53.8689513,
  "lon": -1.6735206
},
{
  "type": "node",
  "id": 2824831223,
  "lat": 53.8689102,
  "lon": -1.6734965
},
{
  "type": "node",
  "id": 2824831224,
  "lat": 53.8688390,
  "lon": -1.6736950
},
{
  "type": "node",
  "id": 2824831225,
  "lat": 53.8688928,
  "lon": -1.6737218
},
{
  "type": "node",
  "id": 2824831226,
  "lat": 53.8689592,
  "lon": -1.6735931
},
{
  "type": "node",
  "id": 2824831227,
  "lat": 53.8688501,
  "lon": -1.6737406
},
{
  "type": "node",
  "id": 4037135526,
  "lat": 53.8676843,
  "lon": -1.6742369
},
{
  "type": "node",
  "id": 4037135527,
  "lat": 53.8678853,
  "lon": -1.6739015
},
{
  "type": "node",
  "id": 4037135528,
  "lat": 53.8684238,
  "lon": -1.6728813
},
{
  "type": "node",
  "id": 4037135529,
  "lat": 53.8686872,
  "lon": -1.6725313
},
{
  "type": "node",
  "id": 4037135531,
  "lat": 53.8690457,
  "lon": -1.6718156
},
{
  "type": "node",
  "id": 4037135532,
  "lat": 53.8692239,
  "lon": -1.6714472
},
{
  "type": "node",
  "id": 4037135533,
  "lat": 53.8693671,
  "lon": -1.6713874
},
{
  "type": "node",
  "id": 4037135534,
  "lat": 53.8695149,
  "lon": -1.6713713
},
{
  "type": "node",
  "id": 4037135535,
  "lat": 53.8696612,
  "lon": -1.6713518
},
{
  "type": "node",
  "id": 4037135536,
  "lat": 53.8697658,
  "lon": -1.6713782
},
{
  "type": "node",
  "id": 4037135537,
  "lat": 53.8698697,
  "lon": -1.6715004
},
{
  "type": "node",
  "id": 4037135544,
  "lat": 53.8699659,
  "lon": -1.6716660
},
{
  "type": "node",
  "id": 4037135545,
  "lat": 53.8700091,
  "lon": -1.6719078
},
{
  "type": "node",
  "id": 4037135546,
  "lat": 53.8700127,
  "lon": -1.6721353
},
{
  "type": "node",
  "id": 4037135547,
  "lat": 53.8699683,
  "lon": -1.6725571
},
{
  "type": "node",
  "id": 4037135548,
  "lat": 53.8699568,
  "lon": -1.6729201
},
{
  "type": "node",
  "id": 4037135549,
  "lat": 53.8699124,
  "lon": -1.6731555
},
{
  "type": "node",
  "id": 4037135550,
  "lat": 53.8698909,
  "lon": -1.6734769
},
{
  "type": "node",
  "id": 4037135551,
  "lat": 53.8698206,
  "lon": -1.6737409
},
{
  "type": "node",
  "id": 4037135552,
  "lat": 53.8697771,
  "lon": -1.6740056
},
{
  "type": "node",
  "id": 4037135553,
  "lat": 53.8697568,
  "lon": -1.6742003
},
{
  "type": "node",
  "id": 4037135554,
  "lat": 53.8697052,
  "lon": -1.6744950
},
{
  "type": "node",
  "id": 4037135555,
  "lat": 53.8696477,
  "lon": -1.6748828
},
{
  "type": "node",
  "id": 4037135556,
  "lat": 53.8696394,
  "lon": -1.6750612
},
{
  "type": "node",
  "id": 4037135557,
  "lat": 53.8696073,
  "lon": -1.6751875
},
{
  "type": "node",
  "id": 4037135558,
  "lat": 53.8695642,
  "lon": -1.6752803
},
{
  "type": "node",
  "id": 4037135559,
  "lat": 53.8694977,
  "lon": -1.6756497
},
{
  "type": "node",
  "id": 4037135560,
  "lat": 53.8693368,
  "lon": -1.6759759
},
{
  "type": "node",
  "id": 4037135561,
  "lat": 53.8684496,
  "lon": -1.6774266
},
{
  "type": "node",
  "id": 4037135565,
  "lat": 53.8681098,
  "lon": -1.6776692
},
{
  "type": "node",
  "id": 4037135566,
  "lat": 53.8681218,
  "lon": -1.6776728
},
{
  "type": "node",
  "id": 4037135567,
  "lat": 53.8682269,
  "lon": -1.6776551
},
{
  "type": "node",
  "id": 4037135568,
  "lat": 53.8683202,
  "lon": -1.6775724
},
{
  "type": "node",
  "id": 4037135569,
  "lat": 53.8683577,
  "lon": -1.6775324
},
{
  "type": "node",
  "id": 5367567597,
  "lat": 53.8717386,
  "lon": -1.6724864
},
{
  "type": "node",
  "id": 5367567598,
  "lat": 53.8733953,
  "lon": -1.6731119
},
{
  "type": "node",
  "id": 745108800,
  "lat": 53.8689963,
  "lon": -1.6674786
},
{
  "type": "node",
  "id": 745108898,
  "lat": 53.8684378,
  "lon": -1.6675671
},
{
  "type": "node",
  "id": 769899737,
  "lat": 53.8708817,
  "lon": -1.6658880
},
{
  "type": "node",
  "id": 769899946,
  "lat": 53.8711952,
  "lon": -1.6663338
},
{
  "type": "node",
  "id": 1096081675,
  "lat": 53.8706528,
  "lon": -1.6710589
},
{
  "type": "node",
  "id": 1096081755,
  "lat": 53.8685976,
  "lon": -1.6678233
},
{
  "type": "node",
  "id": 1096081797,
  "lat": 53.8715181,
  "lon": -1.6658628
},
{
  "type": "node",
  "id": 1096081819,
  "lat": 53.8713723,
  "lon": -1.6661555
},
{
  "type": "node",
  "id": 1096081871,
  "lat": 53.8693304,
  "lon": -1.6683828
},
{
  "type": "node",
  "id": 1096081881,
  "lat": 53.8709968,
  "lon": -1.6662614
},
{
  "type": "node",
  "id": 2226280680,
  "lat": 53.8709090,
  "lon": -1.6657427
},
{
  "type": "node",
  "id": 2226280682,
  "lat": 53.8710456,
  "lon": -1.6655936
},
{
  "type": "node",
  "id": 6447917590,
  "lat": 53.8721627,
  "lon": -1.6650188
},
{
  "type": "node",
  "id": 6447917591,
  "lat": 53.8722861,
  "lon": -1.6650242
},
{
  "type": "node",
  "id": 6447917592,
  "lat": 53.8724094,
  "lon": -1.6650724
},
{
  "type": "node",
  "id": 6447917593,
  "lat": 53.8724885,
  "lon": -1.6651475
},
{
  "type": "node",
  "id": 6447917598,
  "lat": 53.8737346,
  "lon": -1.6667461
},
{
  "type": "node",
  "id": 6447917599,
  "lat": 53.8736239,
  "lon": -1.6665906
},
{
  "type": "node",
  "id": 6447917600,
  "lat": 53.8735417,
  "lon": -1.6664565
},
{
  "type": "node",
  "id": 6447917601,
  "lat": 53.8728996,
  "lon": -1.6657537
},
{
  "type": "node",
  "id": 6447917603,
  "lat": 53.8720362,
  "lon": -1.6651046
},
{
  "type": "node",
  "id": 7826160018,
  "lat": 53.8691425,
  "lon": -1.6679911
},
{
  "type": "node",
  "id": 7826160021,
  "lat": 53.8689152,
  "lon": -1.6682037
},
{
  "type": "node",
  "id": 7973979336,
  "lat": 53.8679305,
  "lon": -1.6680461
},
{
  "type": "node",
  "id": 8322550504,
  "lat": 53.8708954,
  "lon": -1.6658154
},
{
  "type": "node",
  "id": 745108983,
  "lat": 53.8630153,
  "lon": -1.6634829
},
{
  "type": "node",
  "id": 746983855,
  "lat": 53.8630338,
  "lon": -1.6643088
},
{
  "type": "node",
  "id": 1096081677,
  "lat": 53.8616780,
  "lon": -1.6586780
},
{
  "type": "node",
  "id": 1096081761,
  "lat": 53.8620575,
  "lon": -1.6607059
},
{
  "type": "node",
  "id": 1096081862,
  "lat": 53.8626255,
  "lon": -1.6619466
},
{
  "type": "node",
  "id": 1194217594,
  "lat": 53.8625053,
  "lon": -1.6616596
},
{
  "type": "node",
  "id": 2228853767,
  "lat": 53.8628171,
  "lon": -1.6631531
},
{
  "type": "node",
  "id": 5401812045,
  "lat": 53.8625617,
  "lon": -1.6617774
},
{
  "type": "node",
  "id": 5401812046,
  "lat": 53.8633175,
  "lon": -1.6645768
},
{
  "type": "node",
  "id": 7538999714,
  "lat": 53.8625420,
  "lon": -1.6617385
},
{
  "type": "node",
  "id": 8331243070,
  "lat": 53.8626273,
  "lon": -1.6619581
},
{
  "type": "node",
  "id": 1096081786,
  "lat": 53.8614531,
  "lon": -1.6575982
},
{
  "type": "node",
  "id": 1096081839,
  "lat": 53.8612873,
  "lon": -1.6561090
},
{
  "type": "node",
  "id": 2228853759,
  "lat": 53.8612521,
  "lon": -1.6560494
},
{
  "type": "node",
  "id": 745108906,
  "lat": 53.8720376,
  "lon": -1.6640034
},
{
  "type": "node",
  "id": 745109052,
  "lat": 53.8715527,
  "lon": -1.6629108
},
{
  "type": "node",
  "id": 746983897,
  "lat": 53.8707026,
  "lon": -1.6585976
},
{
  "type": "node",
  "id": 746983899,
  "lat": 53.8719702,
  "lon": -1.6645845
},
{
  "type": "node",
  "id": 899077328,
  "lat": 53.8728470,
  "lon": -1.6639970
},
{
  "type": "node",
  "id": 899077371,
  "lat": 53.8731707,
  "lon": -1.6637408
},
{
  "type": "node",
  "id": 4917311207,
  "lat": 53.8710155,
  "lon": -1.6602995
},
{
  "type": "node",
  "id": 4917311215,
  "lat": 53.8709307,
  "lon": -1.6598046
},
{
  "type": "node",
  "id": 4917311231,
  "lat": 53.8709137,
  "lon": -1.6599382
},
{
  "type": "node",
  "id": 4917311232,
  "lat": 53.8709787,
  "lon": -1.6602220
},
{
  "type": "node",
  "id": 7973979301,
  "lat": 53.8709230,
  "lon": -1.6598652
},
{
  "type": "node",
  "id": 7973979318,
  "lat": 53.8709752,
  "lon": -1.6602068
},
{
  "type": "node",
  "id": 745108977,
  "lat": 53.8701206,
  "lon": -1.6550072
},
{
  "type": "node",
  "id": 1096081729,
  "lat": 53.8700036,
  "lon": -1.6539829
},
{
  "type": "node",
  "id": 1096081842,
  "lat": 53.8699422,
  "lon": -1.6524627
},
{
  "type": "node",
  "id": 7973979297,
  "lat": 53.8704889,
  "lon": -1.6572793
},
{
  "type": "node",
  "id": 8175123572,
  "lat": 53.8711389,
  "lon": -1.6578088
},
{
  "type": "node",
  "id": 8175123573,
  "lat": 53.8711502,
  "lon": -1.6577481
},
{
  "type": "node",
  "id": 8175123574,
  "lat": 53.8709462,
  "lon": -1.6576174
},
{
  "type": "node",
  "id": 8175123575,
  "lat": 53.8709312,
  "lon": -1.6576734
},
{
  "type": "node",
  "id": 8175123576,
  "lat": 53.8711490,
  "lon": -1.6576847
},
{
  "type": "node",
  "id": 8175123577,
  "lat": 53.8711355,
  "lon": -1.6576254
},
{
  "type": "node",
  "id": 8175123578,
  "lat": 53.8711112,
  "lon": -1.6575770
},
{
  "type": "node",
  "id": 8175123579,
  "lat": 53.8710789,
  "lon": -1.6575449
},
{
  "type": "node",
  "id": 8175123580,
  "lat": 53.8710421,
  "lon": -1.6575327
},
{
  "type": "node",
  "id": 8175123581,
  "lat": 53.8710050,
  "lon": -1.6575418
},
{
  "type": "node",
  "id": 8175123582,
  "lat": 53.8709718,
  "lon": -1.6575711
},
{
  "type": "node",
  "id": 8175123583,
  "lat": 53.8709277,
  "lon": -1.6577346
},
{
  "type": "node",
  "id": 8175123584,
  "lat": 53.8709359,
  "lon": -1.6577945
},
{
  "type": "node",
  "id": 8175123585,
  "lat": 53.8709549,
  "lon": -1.6578469
},
{
  "type": "node",
  "id": 8175123586,
  "lat": 53.8709828,
  "lon": -1.6578861
},
{
  "type": "node",
  "id": 8175123587,
  "lat": 53.8710167,
  "lon": -1.6579082
},
{
  "type": "node",
  "id": 8175123588,
  "lat": 53.8710529,
  "lon": -1.6579107
},
{
  "type": "node",
  "id": 8175123589,
  "lat": 53.8710877,
  "lon": -1.6578935
},
{
  "type": "node",
  "id": 8175123590,
  "lat": 53.8711174,
  "lon": -1.6578583
},
{
  "type": "node",
  "id": 1096081678,
  "lat": 53.8751700,
  "lon": -1.6734759
},
{
  "type": "node",
  "id": 1096081699,
  "lat": 53.8741313,
  "lon": -1.6745059
},
{
  "type": "node",
  "id": 1096081701,
  "lat": 53.8747127,
  "lon": -1.6746661
},
{
  "type": "node",
  "id": 1096081750,
  "lat": 53.8743146,
  "lon": -1.6720250
},
{
  "type": "node",
  "id": 1096081784,
  "lat": 53.8747765,
  "lon": -1.6722404
},
{
  "type": "node",
  "id": 1096081827,
  "lat": 53.8748830,
  "lon": -1.6743772
},
{
  "type": "node",
  "id": 1096081850,
  "lat": 53.8742794,
  "lon": -1.6747320
},
{
  "type": "node",
  "id": 1096081873,
  "lat": 53.8745090,
  "lon": -1.6723170
},
{
  "type": "node",
  "id": 2228853890,
  "lat": 53.8743202,
  "lon": -1.6718020
},
{
  "type": "node",
  "id": 2228853891,
  "lat": 53.8744183,
  "lon": -1.6722354
},
{
  "type": "node",
  "id": 2228853892,
  "lat": 53.8744220,
  "lon": -1.6747917
},
{
  "type": "node",
  "id": 2228853893,
  "lat": 53.8744646,
  "lon": -1.6722448
},
{
  "type": "node",
  "id": 2228853895,
  "lat": 53.8745275,
  "lon": -1.6747792
},
{
  "type": "node",
  "id": 5367567603,
  "lat": 53.8751017,
  "lon": -1.6732684
},
{
  "type": "node",
  "id": 7538993269,
  "lat": 53.8747602,
  "lon": -1.6722588
},
{
  "type": "node",
  "id": 7538993270,
  "lat": 53.8746394,
  "lon": -1.6723129
},
{
  "type": "node",
  "id": 7538993271,
  "lat": 53.8747473,
  "lon": -1.6722727
},
{
  "type": "node",
  "id": 430166064,
  "lat": 53.8757783,
  "lon": -1.6695189
},
{
  "type": "node",
  "id": 1096081743,
  "lat": 53.8746164,
  "lon": -1.6701658
},
{
  "type": "node",
  "id": 1096081803,
  "lat": 53.8745960,
  "lon": -1.6705898
},
{
  "type": "node",
  "id": 2228853894,
  "lat": 53.8745090,
  "lon": -1.6709101
},
{
  "type": "node",
  "id": 2228853896,
  "lat": 53.8745442,
  "lon": -1.6706369
},
{
  "type": "node",
  "id": 6447917595,
  "lat": 53.8755510,
  "lon": -1.6685514
},
{
  "type": "node",
  "id": 6447917596,
  "lat": 53.8742248,
  "lon": -1.6671914
},
{
  "type": "node",
  "id": 6447917597,
  "lat": 53.8739845,
  "lon": -1.6669929
},
{
  "type": "node",
  "id": 6447917604,
  "lat": 53.8747250,
  "lon": -1.6677297
},
{
  "type": "node",
  "id": 7842744323,
  "lat": 53.8750516,
  "lon": -1.6699126
},
{
  "type": "node",
  "id": 7842754605,
  "lat": 53.8743782,
  "lon": -1.6673565
},
{
  "type": "node",
  "id": 7842754648,
  "lat": 53.8755288,
  "lon": -1.6686344
},
{
  "type": "node",
  "id": 7842754650,
  "lat": 53.8749622,
  "lon": -1.6699646
},
{
  "type": "node",
  "id": 745108341,
  "lat": 53.8610242,
  "lon": -1.6506309
},
{
  "type": "node",
  "id": 745108930,
  "lat": 53.8614356,
  "lon": -1.6485961
},
{
  "type": "node",
  "id": 745109030,
  "lat": 53.8659726,
  "lon": -1.6454843
},
{
  "type": "node",
  "id": 1096081719,
  "lat": 53.8612046,
  "lon": -1.6505541
},
{
  "type": "node",
  "id": 2226280507,
  "lat": 53.8653898,
  "lon": -1.6507400
},
{
  "type": "node",
  "id": 2228853765,
  "lat": 53.8621740,
  "lon": -1.6490177
},
{
  "type": "node",
  "id": 4442982778,
  "lat": 53.8648021,
  "lon": -1.6504787
},
{
  "type": "node",
  "id": 5403157955,
  "lat": 53.8621226,
  "lon": -1.6489818
},
{
  "type": "node",
  "id": 5403157956,
  "lat": 53.8654773,
  "lon": -1.6507267
},
{
  "type": "node",
  "id": 5403157968,
  "lat": 53.8624043,
  "lon": -1.6493091
},
{
  "type": "node",
  "id": 5403158017,
  "lat": 53.8633254,
  "lon": -1.6497270
},
{
  "type": "node",
  "id": 8331243054,
  "lat": 53.8622368,
  "lon": -1.6490972
},
{
  "type": "node",
  "id": 8331243055,
  "lat": 53.8620773,
  "lon": -1.6489563
},
{
  "type": "node",
  "id": 8397765207,
  "lat": 53.8631233,
  "lon": -1.6496353
},
{
  "type": "node",
  "id": 8397765215,
  "lat": 53.8655120,
  "lon": -1.6503594
},
{
  "type": "node",
  "id": 745108812,
  "lat": 53.8685595,
  "lon": -1.6475149
},
{
  "type": "node",
  "id": 745108876,
  "lat": 53.8686231,
  "lon": -1.6465084
},
{
  "type": "node",
  "id": 745108958,
  "lat": 53.8692058,
  "lon": -1.6488882
},
{
  "type": "node",
  "id": 1096081693,
  "lat": 53.8686717,
  "lon": -1.6484062
},
{
  "type": "node",
  "id": 5403121301,
  "lat": 53.8696829,
  "lon": -1.6490875
},
{
  "type": "node",
  "id": 5403121302,
  "lat": 53.8695431,
  "lon": -1.6490363
},
{
  "type": "node",
  "id": 5416424860,
  "lat": 53.8701921,
  "lon": -1.6491776
},
{
  "type": "node",
  "id": 5416424861,
  "lat": 53.8694361,
  "lon": -1.6490095
},
{
  "type": "node",
  "id": 7961302161,
  "lat": 53.8655909,
  "lon": -1.6337724
},
{
  "type": "node",
  "id": 7961302162,
  "lat": 53.8654715,
  "lon": -1.6335944
},
{
  "type": "node",
  "id": 7961302163,
  "lat": 53.8653996,
  "lon": -1.6335480
},
{
  "type": "node",
  "id": 7961302164,
  "lat": 53.8653335,
  "lon": -1.6335480
},
{
  "type": "node",
  "id": 7961302165,
  "lat": 53.8653205,
  "lon": -1.6336066
},
{
  "type": "node",
  "id": 7961302166,
  "lat": 53.8653177,
  "lon": -1.6337968
},
{
  "type": "node",
  "id": 7961302167,
  "lat": 53.8653737,
  "lon": -1.6339406
},
{
  "type": "node",
  "id": 7961302168,
  "lat": 53.8654054,
  "lon": -1.6339528
},
{
  "type": "node",
  "id": 7961302169,
  "lat": 53.8654600,
  "lon": -1.6339138
},
{
  "type": "node",
  "id": 7961302170,
  "lat": 53.8655305,
  "lon": -1.6339089
},
{
  "type": "node",
  "id": 7961302171,
  "lat": 53.8655794,
  "lon": -1.6339650
},
{
  "type": "node",
  "id": 7961302172,
  "lat": 53.8656311,
  "lon": -1.6339991
},
{
  "type": "node",
  "id": 7961302173,
  "lat": 53.8656915,
  "lon": -1.6339577
},
{
  "type": "node",
  "id": 7961302174,
  "lat": 53.8657016,
  "lon": -1.6338967
},
{
  "type": "node",
  "id": 7961302175,
  "lat": 53.8656699,
  "lon": -1.6338260
},
{
  "type": "node",
  "id": 8225785711,
  "lat": 53.8664736,
  "lon": -1.6293480
},
{
  "type": "node",
  "id": 8225785712,
  "lat": 53.8662691,
  "lon": -1.6291339
},
{
  "type": "node",
  "id": 8225785713,
  "lat": 53.8662430,
  "lon": -1.6290330
},
{
  "type": "node",
  "id": 8225785714,
  "lat": 53.8662441,
  "lon": -1.6289587
},
{
  "type": "node",
  "id": 8225785715,
  "lat": 53.8662670,
  "lon": -1.6289145
},
{
  "type": "node",
  "id": 8225785716,
  "lat": 53.8663025,
  "lon": -1.6289162
},
{
  "type": "node",
  "id": 8225841917,
  "lat": 53.8663380,
  "lon": -1.6289782
},
{
  "type": "node",
  "id": 8225841918,
  "lat": 53.8663964,
  "lon": -1.6290189
},
{
  "type": "node",
  "id": 8225841919,
  "lat": 53.8664465,
  "lon": -1.6290861
},
{
  "type": "node",
  "id": 8225841920,
  "lat": 53.8664674,
  "lon": -1.6291198
},
{
  "type": "node",
  "id": 8225841921,
  "lat": 53.8665248,
  "lon": -1.6291675
},
{
  "type": "node",
  "id": 8225841922,
  "lat": 53.8665467,
  "lon": -1.6292277
},
{
  "type": "node",
  "id": 8225841923,
  "lat": 53.8665352,
  "lon": -1.6292967
},
{
  "type": "node",
  "id": 8225841924,
  "lat": 53.8665081,
  "lon": -1.6293374
},
{
  "type": "node",
  "id": 8301338825,
  "lat": 53.8698146,
  "lon": -1.6362426
},
{
  "type": "node",
  "id": 8301338826,
  "lat": 53.8697606,
  "lon": -1.6363137
},
{
  "type": "node",
  "id": 8301338827,
  "lat": 53.8696875,
  "lon": -1.6363646
},
{
  "type": "node",
  "id": 8301338828,
  "lat": 53.8696240,
  "lon": -1.6363706
},
{
  "type": "node",
  "id": 8301338829,
  "lat": 53.8695425,
  "lon": -1.6363463
},
{
  "type": "node",
  "id": 8301338830,
  "lat": 53.8694394,
  "lon": -1.6362019
},
{
  "type": "node",
  "id": 8301338831,
  "lat": 53.8694107,
  "lon": -1.6361308
},
{
  "type": "node",
  "id": 8301338832,
  "lat": 53.8694143,
  "lon": -1.6360678
},
{
  "type": "node",
  "id": 8301338833,
  "lat": 53.8694335,
  "lon": -1.6360309
},
{
  "type": "node",
  "id": 8301338834,
  "lat": 53.8694742,
  "lon": -1.6360203
},
{
  "type": "node",
  "id": 8301338835,
  "lat": 53.8695483,
  "lon": -1.6360344
},
{
  "type": "node",
  "id": 8301338836,
  "lat": 53.8696401,
  "lon": -1.6359707
},
{
  "type": "node",
  "id": 8301338837,
  "lat": 53.8697466,
  "lon": -1.6358769
},
{
  "type": "node",
  "id": 8301338838,
  "lat": 53.8697659,
  "lon": -1.6358920
},
{
  "type": "node",
  "id": 8301338839,
  "lat": 53.8698437,
  "lon": -1.6360884
},
{
  "type": "node",
  "id": 8301338840,
  "lat": 53.8698506,
  "lon": -1.6361608
},
{
  "type": "node",
  "id": 8308601667,
  "lat": 53.8725630,
  "lon": -1.6360053
},
{
  "type": "node",
  "id": 8308601668,
  "lat": 53.8721390,
  "lon": -1.6359095
},
{
  "type": "node",
  "id": 8308601669,
  "lat": 53.8721142,
  "lon": -1.6359469
},
{
  "type": "node",
  "id": 8308601670,
  "lat": 53.8721156,
  "lon": -1.6360753
},
{
  "type": "node",
  "id": 8308601671,
  "lat": 53.8721666,
  "lon": -1.6363041
},
{
  "type": "node",
  "id": 8308601672,
  "lat": 53.8721624,
  "lon": -1.6363812
},
{
  "type": "node",
  "id": 8308601673,
  "lat": 53.8721927,
  "lon": -1.6365400
},
{
  "type": "node",
  "id": 8308601674,
  "lat": 53.8722147,
  "lon": -1.6365563
},
{
  "type": "node",
  "id": 8308601675,
  "lat": 53.8724970,
  "lon": -1.6364209
},
{
  "type": "node",
  "id": 8308601676,
  "lat": 53.8724956,
  "lon": -1.6363275
},
{
  "type": "node",
  "id": 8308601677,
  "lat": 53.8725562,
  "lon": -1.6361687
},
{
  "type": "node",
  "id": 11621564,
  "lat": 53.8847472,
  "lon": -1.6503585
},
{
  "type": "node",
  "id": 899279653,
  "lat": 53.8849064,
  "lon": -1.6500623
},
{
  "type": "node",
  "id": 534433418,
  "lat": 53.8826339,
  "lon": -1.6435710
},
{
  "type": "node",
  "id": 5417922042,
  "lat": 53.8827223,
  "lon": -1.6428117
},
{
  "type": "node",
  "id": 5417922043,
  "lat": 53.8828945,
  "lon": -1.6404181
},
{
  "type": "node",
  "id": 5417922044,
  "lat": 53.8832299,
  "lon": -1.6404713
},
{
  "type": "node",
  "id": 5417922045,
  "lat": 53.8832567,
  "lon": -1.6399023
},
{
  "type": "node",
  "id": 5417922046,
  "lat": 53.8845781,
  "lon": -1.6400123
},
{
  "type": "node",
  "id": 5417922047,
  "lat": 53.8845669,
  "lon": -1.6403612
},
{
  "type": "node",
  "id": 5417922048,
  "lat": 53.8860067,
  "lon": -1.6399478
},
{
  "type": "node",
  "id": 5417922049,
  "lat": 53.8860179,
  "lon": -1.6401071
},
{
  "type": "node",
  "id": 5417922050,
  "lat": 53.8863320,
  "lon": -1.6400066
},
{
  "type": "node",
  "id": 5417925334,
  "lat": 53.8842903,
  "lon": -1.6428615
},
{
  "type": "node",
  "id": 5417925335,
  "lat": 53.8863091,
  "lon": -1.6402593
},
{
  "type": "node",
  "id": 5417925336,
  "lat": 53.8862680,
  "lon": -1.6406000
},
{
  "type": "node",
  "id": 5417925337,
  "lat": 53.8862111,
  "lon": -1.6409138
},
{
  "type": "node",
  "id": 6593904150,
  "lat": 53.8845879,
  "lon": -1.6427341
},
{
  "type": "node",
  "id": 6990078538,
  "lat": 53.8844974,
  "lon": -1.6414610
},
{
  "type": "node",
  "id": 6990078539,
  "lat": 53.8846443,
  "lon": -1.6427099
},
{
  "type": "node",
  "id": 8322206125,
  "lat": 53.8756061,
  "lon": -1.6266330
},
{
  "type": "node",
  "id": 8322206126,
  "lat": 53.8754827,
  "lon": -1.6266736
},
{
  "type": "node",
  "id": 8322206127,
  "lat": 53.8754587,
  "lon": -1.6267224
},
{
  "type": "node",
  "id": 8322206128,
  "lat": 53.8754827,
  "lon": -1.6268667
},
{
  "type": "node",
  "id": 8322206129,
  "lat": 53.8755822,
  "lon": -1.6268180
},
{
  "type": "node",
  "id": 8322206130,
  "lat": 53.8756169,
  "lon": -1.6266940
},
{
  "type": "way",
  "id": 59934357,
  "nodes": [
    745108800,
    1096081755,
    745108898,
    7973979336,
    745109016,
    5367574343,
    2228853864,
    2228853860,
    1096081826,
    2228853848,
    745108921,
    8671429686,
    2228853840,
    745109043,
    745108825,
    745108962,
    745108868,
    2228853771,
    2228853769,
    5401812046,
    746983855,
    745108983,
    2228853767,
    8331243070,
    1096081862,
    5401812045,
    7538999714,
    1194217594,
    1096081761,
    1096081677,
    1096081786,
    1096081839,
    2228853759,
    2228853757,
    8331243084,
    745108895,
    2228853751,
    2228853750,
    2228853755,
    2228853754
  ]
},
{
  "type": "way",
  "id": 838561691,
  "nodes": [
    2228853754,
    8331243037,
    1096081816,
    1096081698,
    2228853743,
    8331243071,
    2228853741,
    745108865,
    2228853746,
    3694673178,
    2228853752,
    745109054,
    1096081730,
    745108910,
    745108341,
    1096081719,
    745108930
  ]
},
{
  "type": "way",
  "id": 3753696,
  "nodes": [
    4037135561,
    4037135560,
    4037135559,
    1534369432,
    4037135558,
    4037135557,
    4037135556,
    4037135555,
    4037135554,
    4037135553,
    4037135552,
    4037135551,
    4037135550,
    4037135549,
    4037135548,
    4037135547,
    4037135546,
    4037135545,
    4037135544,
    4037135537,
    4037135536,
    4037135535,
    4037135534,
    4037135533,
    4037135532,
    4037135531,
    4037135529,
    4037135528,
    4037135527,
    4037135526,
    1534369486,
    4037135523,
    4037135522,
    4037135576,
    4037135521,
    936454162,
    1534369480,
    18667957,
    4037135565,
    4037135566,
    4037135567,
    4037135568,
    4037135569,
    4037135561
  ]
},
{
  "type": "way",
  "id": 838561689,
  "nodes": [
    769899737,
    1096081881,
    769899946,
    1096081819,
    1096081797,
    6447917603,
    6447917590,
    6447917591,
    6447917592,
    6447917593,
    6447917601,
    6447917600,
    6447917599,
    6447917598,
    6447917597,
    6447917596,
    7842754605,
    6447917604,
    6447917595,
    7842754648,
    430166064,
    7842744323,
    7842754650,
    1096081743,
    1096081803,
    2228853896,
    2228853894,
    2228853890,
    1096081750,
    2228853891,
    2228853893,
    1096081873,
    7538993270,
    7538993271,
    7538993269,
    1096081784,
    5367567603,
    1096081678,
    1096081827,
    1096081701,
    2228853895,
    2228853892,
    1096081850,
    1096081699,
    1096081831,
    1096081720,
    5367567598,
    1096081799,
    1096081763,
    1194217586,
    1096081835,
    2228853887,
    5367567597,
    1096081783,
    2228853886,
    2228853885,
    1096081675,
    1096081871,
    7826160021,
    7826160018,
    745108800
  ]
},
{
  "type": "way",
  "id": 278053730,
  "nodes": [
    2824831226,
    2824831220,
    2824831225,
    2824831227,
    2824831224,
    2824831221,
    2824831223,
    2824831222,
    2824831226
  ]
},
{
  "type": "way",
  "id": 838561692,
  "nodes": [
    745109030,
    745108876,
    745108812,
    1096081693,
    745108958,
    5416424861,
    5403121302,
    5403121301,
    5416424860,
    1096081842,
    1096081729,
    745108977,
    7973979297,
    746983897,
    4917311215,
    7973979301,
    4917311231,
    7973979318,
    4917311232,
    4917311207,
    745109052,
    745108906,
    746983899,
    2226280682,
    2226280680,
    8322550504,
    769899737
  ]
},
{
  "type": "way",
  "id": 838561693,
  "nodes": [
    745108930,
    8331243055,
    5403157955,
    2228853765,
    8331243054,
    5403157968,
    8397765207,
    5403158017,
    4442982778,
    2226280507,
    5403157956,
    8397765215,
    745109030
  ]
}

  ]
}
